OBJECTID,ID,NAME,TELEPHONE,ADDRESS,ADDRESS2,CITY,STATE,ZIP,ZIPP4,COUNTY,FIPS,DIRECTIONS,EMERGTITLE,EMERGTEL,EMERGEXT,CONTDATE,CONTHOW,GEODATE,GEOHOW,HSIPTHEMES,NAICSCODE,NAICSDESCR,GEOLINKID,X,Y,ST_VENDOR,ST_VERSION,GEOPREC,PHONELOC,QC_QA,UCAOA_ID
2987,10425843,MEDEXPRESS - WILLIAMSBURG,757-564-3627,120 MONTICELLO AVENUE, ,WILLIAMSBURG,VA,23185,2840,WILLIAMSBURG CITY,51830,LOC ON THE NW SIDE OF MONTICELLO AVE BETWEEN GARRISON DR AND RICHMOND RD, , , ,2008/02/05 00:00:00+00,PHONE,2008/02/05 00:00:00+00,MANUAL,"CRITICAL INFRASTRUCTURE, PDD-63; PUBLIC HEALTH; PRIMARY CARE FACILITIES (INCLUDING HOSPITALS); AMBULATORY SURGICAL FACILITIES",621493,"URGENT MEDICAL CARE CENTERS AND CLINICS (EXCEPT HOSPITALS), FREESTANDING",25194063,-76.7206788,37.2822569,NAVTEQ,2006Q4,ONENTITY,YES,TGS, 
2996,10422271,FAIR OAKS WALK IN CARE - BURKE,703-239-0300,6045 BURKE CENTRE PARKWAY, ,BURKE,VA,22015,3751,FAIRFAX,51059,LOC. .24 MILES NW OF INT OF BURKE CENTRE PKY AND SCHOOLHOUSE WOODS RD ON THE NE SIDE OF BURKE CENTRE PKY, , , ,2008/01/25 00:00:00+00,PHONE,2008/02/06 00:00:00+00,MANUAL,"CRITICAL INFRASTRUCTURE, PDD-63; PUBLIC HEALTH; PRIMARY CARE FACILITIES (INCLUDING HOSPITALS); AMBULATORY SURGICAL FACILITIES",621493,"URGENT MEDICAL CARE CENTERS AND CLINICS (EXCEPT HOSPITALS), FREESTANDING",123660211,-77.2985843,38.7869828,NAVTEQ,2006Q4,ONENTITY,YES,TGS,UC_3770
2998,10425856,PRIMEMED URGENT CARE,703-221-2109,3928 LANSING COURT, ,DUMFRIES,VA,22026,2460,PRINCE WILLIAM,51153,LOC ON THE SE CORNER OF LANSING CT AND S MAIN ST, , , ,2008/02/06 00:00:00+00,PHONE,2008/02/06 00:00:00+00,MANUAL,"CRITICAL INFRASTRUCTURE, PDD-63; PUBLIC HEALTH; PRIMARY CARE FACILITIES (INCLUDING HOSPITALS); AMBULATORY SURGICAL FACILITIES",621493,"URGENT MEDICAL CARE CENTERS AND CLINICS (EXCEPT HOSPITALS), FREESTANDING",24788367,-77.3290637,38.5640153,NAVTEQ,2006Q4,ONENTITY,YES,TGS, 
2999,10425844,MEDEXPRESS - YORKTOWN,757-890-6339,4740 GEORGE WASHINGTON MEMORIAL HIGHWAY,GRAFTON SQUARE SUITE A,YORKTOWN,VA,23692,2512,YORK,51199,LOC ON THE NE SIDE OF GEORGE WASHINGTON MEMORIAL HWY BETWEEN CHARLENE CT AND YORK CROSSING RD, , , ,2008/02/05 00:00:00+00,PHONE,2008/02/05 00:00:00+00,MANUAL,"CRITICAL INFRASTRUCTURE, PDD-63; PUBLIC HEALTH; PRIMARY CARE FACILITIES (INCLUDING HOSPITALS); AMBULATORY SURGICAL FACILITIES",621493,"URGENT MEDICAL CARE CENTERS AND CLINICS (EXCEPT HOSPITALS), FREESTANDING",25243338,-76.4594981,37.1516663,NAVTEQ,2006Q4,ONENTITY,YES,TGS, 
3001,10425878,FAIR OAKS MEDICAL CENTER WALK IN CARE - FAIRFAX STATION,703-495-9148,9015 SILVERBROOK ROAD,SUITE 106,FAIRFAX STATION,VA,22039,2685,FAIRFAX,51059,LOC ON THE S SIDE OF SILVER BROOK RD BETWEEN BAYBERRY RIDGE RD AND OAK CHASE CIR, , , ,2008/02/06 00:00:00+00,PHONE,2008/02/06 00:00:00+00,MANUAL,"CRITICAL INFRASTRUCTURE, PDD-63; PUBLIC HEALTH; PRIMARY CARE FACILITIES (INCLUDING HOSPITALS); AMBULATORY SURGICAL FACILITIES",621493,"URGENT MEDICAL CARE CENTERS AND CLINICS (EXCEPT HOSPITALS), FREESTANDING",18376234,-77.2574691,38.7270929,NAVTEQ,2006Q4,ONENTITY,YES,TGS, 
3005,11522802,FREDERICKSBURG WALK IN MEDICAL CENTER,540-785-8018,4117 PLANK ROAD, ,FREDERICKSBURG,VA,22407,4888,SPOTSYLVANIA,51177,LOCATED ON THE NORTH SIDE OF PLANK RD BETWEEN KENNEDY LN AND SALEM CHURCH RD, , , ,2009/03/30 00:00:00+00,PHONE,2009/03/30 00:00:00+00,MANUAL,"CRITICAL INFRASTRUCTURE, PDD-63; PUBLIC HEALTH; PRIMARY CARE FACILITIES (INCLUDING HOSPITALS); AMBULATORY SURGICAL FACILITIES",621493,"URGENT MEDICAL CARE CENTERS AND CLINICS (EXCEPT HOSPITALS), FREESTANDING",113331890,-77.5335785,38.2910913,NAVTEQ,2008Q1,ONENTITY,YES,TGS, 
3020,10422266,LEWIS-GALE VALLEY VIEW CLINIC,540-265-1670,4910 VALLEY VIEW BOULEVARD NORTHWEST, ,ROANOKE,VA,24012,2040,ROANOKE CITY,51770,LOC ON THE SW CORNER OF RING RD NW AND VALLEY VIEW RD NW, , , ,2008/01/25 00:00:00+00,PHONE,2008/01/25 00:00:00+00,MANUAL,"CRITICAL INFRASTRUCTURE, PDD-63; PUBLIC HEALTH; PRIMARY CARE FACILITIES (INCLUDING HOSPITALS); AMBULATORY SURGICAL FACILITIES",621493,"URGENT MEDICAL CARE CENTERS AND CLINICS (EXCEPT HOSPITALS), FREESTANDING",128060211,-79.9680582,37.3047758,NAVTEQ,2006Q4,ONENTITY,YES,TGS,UC_3757
3034,11521796,BEDFORD FAMILY URGENT CARE,540-587-8612,1368 AMERICAN WAY, ,BEDFORD,VA,24523,2940,BEDFORD CITY,51515,LOCATED ON THE EAST SIDE OF AMERICAN WAY LESS THAN 0.10 MILE SOUTH OF FREEDOM LN, , , ,2009/03/30 00:00:00+00,PHONE,2009/03/30 00:00:00+00,MANUAL,"CRITICAL INFRASTRUCTURE, PDD-63; PUBLIC HEALTH; PRIMARY CARE FACILITIES (INCLUDING HOSPITALS); AMBULATORY SURGICAL FACILITIES",621493,"URGENT MEDICAL CARE CENTERS AND CLINICS (EXCEPT HOSPITALS), FREESTANDING",128076216,-79.5021778,37.326305,NAVTEQ,2008Q1,ONENTITY,YES,TGS, 
3054,11524590,EMERGICARE - HARRISONBURG,540-432-9996,755 CANTRELL AVENUE,SUITE A,HARRISONBURG,VA,22801,4366,HARRISONBURG CITY,51660,LOCATED ON THE SOUTH SIDE OF CANTRELL AVE BETWEEN MOUNTAIN VIEW DR AND RESERVOIR ST, , , ,2009/03/31 00:00:00+00,PHONE,2009/03/31 00:00:00+00,MANUAL,"CRITICAL INFRASTRUCTURE, PDD-63; PUBLIC HEALTH; PRIMARY CARE FACILITIES (INCLUDING HOSPITALS); AMBULATORY SURGICAL FACILITIES",621493,"URGENT MEDICAL CARE CENTERS AND CLINICS (EXCEPT HOSPITALS), FREESTANDING",101849350,-78.8580237,38.4400755,NAVTEQ,2008Q1,ONENTITY,YES,TGS, 
3056,11241572,HALIFAX MED,434-572-9355,1627 SEYMOUR DRIVE, ,SOUTH BOSTON,VA,24592,3428,SOUTH BOSTON CITY,51780,ON THE SOUTH SIDE OF SEYMOUR DR BETWEEN MARSHALL AVE AND SOIL ST, , , ,2009/02/06 00:00:00+00,PHONE,2009/02/06 00:00:00+00,MANUAL,"CRITICAL INFRASTRUCTURE, PDD-63; PUBLIC HEALTH; PRIMARY CARE FACILITIES (INCLUDING HOSPITALS); AMBULATORY SURGICAL FACILITIES",621493,"URGENT MEDICAL CARE CENTERS AND CLINICS (EXCEPT HOSPITALS), FREESTANDING",101695292,-78.8928263,36.6965294,NAVTEQ,2008Q1,ONENTITY,YES,TGS, 
3057,10194292,PRIMARY AND URGENT CARE,540-288-9888,1075 GARRISONVILLE ROAD, ,STAFFORD,VA,22556,8600,STAFFORD,51179,ON THE WEST SIDE OF GARRISONVILLE RD BETWEEN TOLUCA RD AND PATTON DR, , , ,2009/02/09 00:00:00+00,PHONE,2009/02/09 00:00:00+00,MANUAL,"CRITICAL INFRASTRUCTURE, PDD-63; PUBLIC HEALTH; PRIMARY CARE FACILITIES (INCLUDING HOSPITALS); AMBULATORY SURGICAL FACILITIES",621493,"URGENT MEDICAL CARE CENTERS AND CLINICS (EXCEPT HOSPITALS), FREESTANDING",18593762,-77.469689,38.4742914,NAVTEQ,2008Q1,ONENTITY,YES,TGS,UC_3683
3063,11524591,EMERGENCY USA,703-257-1996,8694 CENTREVILLE ROAD, ,MANASSAS,VA,20110,5266,MANASSAS CITY,51683,LOCATED ON THE NORTHWEST SIDE OF CENTREVILLE RD BETWEEN BREEDEN AVE AND PHOENIX DR, , , ,2009/03/31 00:00:00+00,PHONE,2009/04/03 00:00:00+00,MANUAL,"CRITICAL INFRASTRUCTURE, PDD-63; PUBLIC HEALTH; PRIMARY CARE FACILITIES (INCLUDING HOSPITALS); AMBULATORY SURGICAL FACILITIES",621493,"URGENT MEDICAL CARE CENTERS AND CLINICS (EXCEPT HOSPITALS), FREESTANDING",123637400,-77.4577469,38.7655542,NAVTEQ,2008Q1,ONENTITY,YES,TGS, 
3064,10192482,AAA URGENT CARE 24 HOUR,703-354-6665,4600 KING STREET,SUITE 4N,ALEXANDRIA,VA,22302,1278,ALEXANDRIA CITY,51510,"LOCATED ON SW SIDE OF KING ST, 0.05 MI SE OF N BEAUREGARD ST.", , , ,2006/12/18 00:00:00+00,PHONE,2006/12/18 00:00:00+00,MANUAL,"CRITICAL INFRASTRUCTURE, PDD-63; PUBLIC HEALTH; PRIMARY CARE FACILITIES (INCLUDING HOSPITALS); AMBULATORY SURGICAL FACILITIES",621493,"URGENT MEDICAL CARE CENTERS AND CLINICS (EXCEPT HOSPITALS), FREESTANDING",19456481,-77.1074242,38.8408072,NAVTEQ,2006Q3,ONENTITY,YES,TGS,UC_3752
3068,11521797,LADYSMITH URGENT CARE,804-448-4885,17428 CENTER DRIVE,SUITE E,RUTHER GLEN,VA,22546,2885,CAROLINE,51033,LOCATED ON THE WEST SIDE OF CENTER DR BETWEEN COMMERCE WAY AND LADYSMITH RD, , , ,2009/03/30 00:00:00+00,PHONE,2009/03/30 00:00:00+00,MANUAL,"CRITICAL INFRASTRUCTURE, PDD-63; PUBLIC HEALTH; PRIMARY CARE FACILITIES (INCLUDING HOSPITALS); AMBULATORY SURGICAL FACILITIES",621493,"URGENT MEDICAL CARE CENTERS AND CLINICS (EXCEPT HOSPITALS), FREESTANDING",736215525,-77.5117803,38.0194678,NAVTEQ,2008Q1,ONENTITY,YES,TGS, 
3071,11524592,OLD TOWN MANASSAS MEDICAL CENTER INCORPORATED,703-365-0397,9309 CENTREVILLE ROAD, ,MANASSAS,VA,20110,5132,MANASSAS CITY,51683,LOCATED ON THE EAST SIDE OF ZEBEDEE ST BETWEEN CENTREVILLE RD AND QUARRY RD, , , ,2009/03/31 00:00:00+00,PHONE,2009/03/31 00:00:00+00,MANUAL,"CRITICAL INFRASTRUCTURE, PDD-63; PUBLIC HEALTH; PRIMARY CARE FACILITIES (INCLUDING HOSPITALS); AMBULATORY SURGICAL FACILITIES",621493,"URGENT MEDICAL CARE CENTERS AND CLINICS (EXCEPT HOSPITALS), FREESTANDING",18470434,-77.468373,38.7528106,NAVTEQ,2008Q1,ONENTITY,YES,TGS, 
3072,11522299,FAMILY DOCS ON CALL,540-341-1734,493 BLACKWELL ROAD,SUITE 202,WARRENTON,VA,20186,2628,FAUQUIER,51061,LOCATED ON THE NORTHEAST CORNER OF BLACKWELL RD AND WALKER DR, , , ,2009/03/30 00:00:00+00,PHONE,2009/03/30 00:00:00+00,MANUAL,"CRITICAL INFRASTRUCTURE, PDD-63; PUBLIC HEALTH; PRIMARY CARE FACILITIES (INCLUDING HOSPITALS); AMBULATORY SURGICAL FACILITIES",621493,"URGENT MEDICAL CARE CENTERS AND CLINICS (EXCEPT HOSPITALS), FREESTANDING",40044815,-77.7897774,38.7250467,NAVTEQ,2008Q1,ONENTITY,YES,TGS, 
3082,10192501,HEALTH CARE PLUS,804-526-2121,436 CLAIRMONT COURT,100,COLONIAL HEIGHTS,VA,23834,1765,COLONIAL HEIGHTS CITY,51570,"LOCATED ON NE SIDE OF CLAIRMONT CT, 0.05 MI NW OF DUNLOP FARMS BLVD.", , , ,2006/12/18 00:00:00+00,PHONE,2006/12/18 00:00:00+00,MANUAL,"CRITICAL INFRASTRUCTURE, PDD-63; PUBLIC HEALTH; PRIMARY CARE FACILITIES (INCLUDING HOSPITALS); AMBULATORY SURGICAL FACILITIES",621493,"URGENT MEDICAL CARE CENTERS AND CLINICS (EXCEPT HOSPITALS), FREESTANDING",34746009,-77.3992886,37.2678459,NAVTEQ,2006Q3,ONENTITY,YES,TGS,UC_3751
3085,11524589,CARILION CLINIC URGENT CARE - GALAX,276-236-5181,199 HOSPITAL DRIVE, ,GALAX,VA,24333,2454,GALAX CITY,51640,LOCATED ON THE NORTH SIDE OF HOSPITAL DR APPROX 0.30 MILES WEST OF VALLEY ST, , , ,2009/03/31 00:00:00+00,PHONE,2009/03/31 00:00:00+00,MANUAL,"CRITICAL INFRASTRUCTURE, PDD-63; PUBLIC HEALTH; PRIMARY CARE FACILITIES (INCLUDING HOSPITALS); AMBULATORY SURGICAL FACILITIES",621493,"URGENT MEDICAL CARE CENTERS AND CLINICS (EXCEPT HOSPITALS), FREESTANDING",123604691,-80.9228475,36.672308,NAVTEQ,2008Q1,ONENTITY,YES,TGS, 
3097,10470788,ANNANDALE URGENT CARE,703-658-7060,7611 LITTLE RIVER TURNPIKE,SUITE 108 W,ANNANDALE,VA,22003,2611,FAIRFAX,51059,ON THE SOUTH SIDE OF LITTLE RIVER TPKE IN BETWEEN HERITAGE DR AND WOODLAND RD, , , ,2008/03/17 00:00:00+00,PHONE,2008/03/17 00:00:00+00,MANUAL,"CRITICAL INFRASTRUCTURE, PDD-63; PUBLIC HEALTH; PRIMARY CARE FACILITIES (INCLUDING HOSPITALS); AMBULATORY SURGICAL FACILITIES",621493,"URGENT MEDICAL CARE CENTERS AND CLINICS (EXCEPT HOSPITALS), FREESTANDING",18361294,-77.20882,38.8318499,NAVTEQ,2006Q4,ONENTITY,YES,TGS, 
3113,10844591,BRISTOW URGENT CARE CENTER,703-330-2255,10390 BRISTOW CENTER DRIVE, ,BRISTOW,VA,20136,2201,PRINCE WILLIAM,51153,"LOCATED ON THE NORTH SIDE OF VINT HILL RD, BETWEEN .1 AND .2 MILES WEST OF THE INTERSECTION OF VINT HILL RD AND NOKESVILLE RD.", , , ,2009/02/06 00:00:00+00,PHONE,2009/02/09 00:00:00+00,MANUAL,"CRITICAL INFRASTRUCTURE, PDD-63; PUBLIC HEALTH; PRIMARY CARE FACILITIES (INCLUDING HOSPITALS); AMBULATORY SURGICAL FACILITIES",621493,"URGENT MEDICAL CARE CENTERS AND CLINICS (EXCEPT HOSPITALS), FREESTANDING", ,-77.5500983,38.7322932,TGS,2008Q1,ONENTITY,YES,TGS, 
3137,10422894,RIVERSIDE WILLIAMSBURG MEDICAL ARTS URGENT CARE AND FAMILY PRACTICE,757-220-8300,5231 JOHN TYLER MEMORIAL HIGHWAY, ,WILLIAMSBURG,VA,23185, ,JAMES CITY,51095,LOC ON THE SE CORNER OF THE INT OF JOHN TYLER MEMORIAL HWY AND KINGS WAY., , , ,2008/01/25 00:00:00+00,PHONE,2008/01/25 00:00:00+00,MANUAL,"CRITICAL INFRASTRUCTURE, PDD-63; PUBLIC HEALTH; PRIMARY CARE FACILITIES (INCLUDING HOSPITALS); AMBULATORY SURGICAL FACILITIES",621493,"URGENT MEDICAL CARE CENTERS AND CLINICS (EXCEPT HOSPITALS), FREESTANDING",123663206,-76.7413097,37.2589209,NAVTEQ,2006Q4,ONENTITY,YES,TGS, 
3142,11513083,GLOUCESTER URGENT CARE,804-210-1005,5659 PARKWAY DRIVE, ,GLOUCESTER,VA,23061,3782,GLOUCESTER,51073,LOC ON THE S CORNER OF CANON WAY AND PARKWAY DR, , , ,2009/02/10 00:00:00+00,PHONE,2009/02/11 00:00:00+00,MANUAL,"CRITICAL INFRASTRUCTURE, PDD-63; PUBLIC HEALTH; PRIMARY CARE FACILITIES (INCLUDING HOSPITALS); AMBULATORY SURGICAL FACILITIES",621493,"URGENT MEDICAL CARE CENTERS AND CLINICS (EXCEPT HOSPITALS), FREESTANDING", ,-76.5331308,37.3688468,TGS,2008Q1,ONENTITY,YES,TGS, 
3143,11513107,GAINESVILLE URGENT MEDICAL CARE PRIMARY CARE,571-248-7453,7588 GARDNER PARK DRIVE, ,GAINESVILLE,VA,20155,3414,PRINCE WILLIAM,51153,LOCATED ON THE NORTHWEST CORNER OF LEE HWY AND GARDNER PARK DR., , , ,2009/02/11 00:00:00+00,PHONE,2009/02/11 00:00:00+00,MANUAL,"CRITICAL INFRASTRUCTURE, PDD-63; PUBLIC HEALTH; PRIMARY CARE FACILITIES (INCLUDING HOSPITALS); AMBULATORY SURGICAL FACILITIES",621493,"URGENT MEDICAL CARE CENTERS AND CLINICS (EXCEPT HOSPITALS), FREESTANDING", ,-77.6218892,38.7941963,TGS,2008Q1,ONENTITY,YES,TGS, 
3144,10844595,GATEWAY MEDICAL URGENT CARE,540-775-8009,11131 JOURNAL PARKWAY, ,KING GEORGE,VA,22485, ,KING GEORGE,51099,"FROM THE INTERSECTION OF VA-205 AND KINGS HWY, GO NORTH ON KINGS HWY BETWEEN .3 AND .4 MILES, THEN SW ON JOURNAL PARKWAY FOR .1 MILES, LOCATED ON SOUTHWEST END OF JOURNAL PARKWAY.", , , ,2009/02/09 00:00:00+00,PHONE,2009/02/09 00:00:00+00,MANUAL,"CRITICAL INFRASTRUCTURE, PDD-63; PUBLIC HEALTH; PRIMARY CARE FACILITIES (INCLUDING HOSPITALS); AMBULATORY SURGICAL FACILITIES",621493,"URGENT MEDICAL CARE CENTERS AND CLINICS (EXCEPT HOSPITALS), FREESTANDING", ,-77.1702238,38.2602311,TGS,2008Q1,ONENTITY,YES,TGS, 
3161,10993786,STAFFORD URGENT CARE,540-720-8000,422 GARRISONVILLE ROAD, ,STAFFORD,VA,22554,1573,STAFFORD,51179,ON THE NORTH SIDE OF GARRISONVILLE RD BETWEEN TRAVIS LN AND ONVILLE RD, , , ,2009/02/09 00:00:00+00,PHONE,2009/02/09 00:00:00+00,MANUAL,"CRITICAL INFRASTRUCTURE, PDD-63; PUBLIC HEALTH; PRIMARY CARE FACILITIES (INCLUDING HOSPITALS); AMBULATORY SURGICAL FACILITIES",621493,"URGENT MEDICAL CARE CENTERS AND CLINICS (EXCEPT HOSPITALS), FREESTANDING",33758764,-77.4282391,38.4761984,NAVTEQ,2008Q1,ONENTITY,YES,TGS, 
3179,10196715,PRIMARY CARE ASSOCIATES,540-745-5700,249 FRANKLIN PIKE SOUTHEAST, ,FLOYD,VA,24091,2893,FLOYD,51063,ON THE NE SIDE OF FRANKLIN PIKE .3 MI SE OF US-221, , , ,2009/02/04 00:00:00+00,PHONE,2009/02/04 00:00:00+00,MANUAL,"CRITICAL INFRASTRUCTURE, PDD-63; PUBLIC HEALTH; PRIMARY CARE FACILITIES (INCLUDING HOSPITALS); AMBULATORY SURGICAL FACILITIES",621493,"URGENT MEDICAL CARE CENTERS AND CLINICS (EXCEPT HOSPITALS), FREESTANDING",108595670,-80.2974197,36.9190178,NAVTEQ,2008Q1,ONENTITY,YES,TGS,UC_3733
3197,10422284,PATIENT CHOICE GHENT,757-622-8358,957 WEST 21ST STREET,SUITE E,NORFOLK,VA,23517,1536,NORFOLK CITY,51710,LOCATED ON THE NORTHWEST CORNER OF AZALEA CT AND W 21ST ST., , , ,2009/02/06 00:00:00+00,PHONE,2009/02/06 00:00:00+00,MANUAL,"CRITICAL INFRASTRUCTURE, PDD-63; PUBLIC HEALTH; PRIMARY CARE FACILITIES (INCLUDING HOSPITALS); AMBULATORY SURGICAL FACILITIES",621493,"URGENT MEDICAL CARE CENTERS AND CLINICS (EXCEPT HOSPITALS), FREESTANDING",25205179,-76.3006989,36.8727825,NAVTEQ,2008Q1,ONENTITY,YES,TGS,UC_3801
3205,10422252,LITTLE CREEK MEDICAL ASSOCIATES,757-583-6338,1326 EAST LITTLE CREEK ROAD, ,NORFOLK,VA,23518,3952,NORFOLK CITY,51710,LOCATED ON THE NORTHEAST CORNER OF MOOSE AVE AND E LITTLE CREEK RD., , , ,2009/02/06 00:00:00+00,PHONE,2009/02/06 00:00:00+00,MANUAL,"CRITICAL INFRASTRUCTURE, PDD-63; PUBLIC HEALTH; PRIMARY CARE FACILITIES (INCLUDING HOSPITALS); AMBULATORY SURGICAL FACILITIES",621493,"URGENT MEDICAL CARE CENTERS AND CLINICS (EXCEPT HOSPITALS), FREESTANDING",25243843,-76.2362423,36.9161299,NAVTEQ,2008Q1,ONENTITY,YES,TGS,UC_3705
3221,11513105,URGENT MEDICAL CARE INCORPORATED,703-445-8110,17193 WAYSIDE DRIVE, ,DUMFRIES,VA,22026,2766,PRINCE WILLIAM,51153,"LOCATED ON THE NORTHEAST SIDE OF WAYSIDE DR, BETWEEN .1 AND .2 MILES SOUTHEAST OF US-1.", , , ,2009/02/10 00:00:00+00,PHONE,2009/02/10 00:00:00+00,MANUAL,"CRITICAL INFRASTRUCTURE, PDD-63; PUBLIC HEALTH; PRIMARY CARE FACILITIES (INCLUDING HOSPITALS); AMBULATORY SURGICAL FACILITIES",621493,"URGENT MEDICAL CARE CENTERS AND CLINICS (EXCEPT HOSPITALS), FREESTANDING",24738124,-77.309,38.5788952,NAVTEQ,2008Q1,ONENTITY,YES,TGS, 
3239,11524614,JOHNSTON MEMORIAL HOSPITAL URGENT CARE CENTER,276-739-8010,603 CAMPUS DRIVE,SUITE 100,ABINGDON,VA,24210,9700,WASHINGTON,51191,LOCATED ON THE SOUTHWEST CORNER OF RUSSELL RD NW AND CAMPUS DR, , , ,2009/04/01 00:00:00+00,PHONE,2009/04/01 00:00:00+00,MANUAL,"CRITICAL INFRASTRUCTURE, PDD-63; PUBLIC HEALTH; PRIMARY CARE FACILITIES (INCLUDING HOSPITALS); AMBULATORY SURGICAL FACILITIES",621493,"URGENT MEDICAL CARE CENTERS AND CLINICS (EXCEPT HOSPITALS), FREESTANDING",722745768,-81.9930006,36.7115369,NAVTEQ,2008Q1,ONENTITY,YES,TGS, 
3240,11524303,PRIMARY AND URGENT CARE LIMITED LIABILITY COMPANY,540-785-9900,4510 PLANK ROAD,SUITE 200,FREDERICKSBURG,VA,22407,138,SPOTSYLVANIA,51177,LOCATED ON THE SOUTH SIDE OF PLANK RD BETWEEN RUTHERFORD DR AND KENNEDY LN, , , ,2009/03/30 00:00:00+00,PHONE,2009/03/30 00:00:00+00,MANUAL,"CRITICAL INFRASTRUCTURE, PDD-63; PUBLIC HEALTH; PRIMARY CARE FACILITIES (INCLUDING HOSPITALS); AMBULATORY SURGICAL FACILITIES",621493,"URGENT MEDICAL CARE CENTERS AND CLINICS (EXCEPT HOSPITALS), FREESTANDING",90784808,-77.5374777,38.2880885,NAVTEQ,2008Q1,ONENTITY,YES,TGS, 
3260,11524305,NEXTCARE URGENT CARE,540-785-2727,5825 PLANK ROAD, ,FREDERICKSBURG,VA,22407,6229,SPOTSYLVANIA,51177,LOCATED ON THE NORTH SIDE OF PLANK RD BETWEEN HARRISON RD AND BIG BEN BLVD, , , ,2009/03/30 00:00:00+00,PHONE,2009/03/30 00:00:00+00,MANUAL,"CRITICAL INFRASTRUCTURE, PDD-63; PUBLIC HEALTH; PRIMARY CARE FACILITIES (INCLUDING HOSPITALS); AMBULATORY SURGICAL FACILITIES",621493,"URGENT MEDICAL CARE CENTERS AND CLINICS (EXCEPT HOSPITALS), FREESTANDING",113330439,-77.5707103,38.2921605,NAVTEQ,2008Q1,BLOCKFACE,YES,TGS, 
3262,11524306,NEXTCARE URGENT CARE,540-373-2424,330 WHITE OAK ROAD, ,FREDERICKSBURG,VA,22405,2792,STAFFORD,51179,LOCATED ON THE SOUTH SIDE OF WHITE OAK RD BETWEEN TOWN AND COUNTRY DR AND LITTLE WHIM RD, , , ,2009/03/30 00:00:00+00,PHONE,2009/03/30 00:00:00+00,MANUAL,"CRITICAL INFRASTRUCTURE, PDD-63; PUBLIC HEALTH; PRIMARY CARE FACILITIES (INCLUDING HOSPITALS); AMBULATORY SURGICAL FACILITIES",621493,"URGENT MEDICAL CARE CENTERS AND CLINICS (EXCEPT HOSPITALS), FREESTANDING",33756961,-77.4281356,38.3108673,NAVTEQ,2008Q1,BLOCKFACE,YES,TGS, 
3276,10194302,FAIR LAKES URGENT CARE CENTER,703-222-3555,12713 SHOPPES LANE, ,FAIRFAX,VA,22033,3834,FAIRFAX,51059,.10 MILES NORTHEAST OF FAIR LAKES CIR ON THE SOUTHEAST SIDE OF SHOPPES LN, , , ,2009/02/05 00:00:00+00,PHONE,2009/02/05 00:00:00+00,MANUAL,"CRITICAL INFRASTRUCTURE, PDD-63; PUBLIC HEALTH; PRIMARY CARE FACILITIES (INCLUDING HOSPITALS); AMBULATORY SURGICAL FACILITIES",621493,"URGENT MEDICAL CARE CENTERS AND CLINICS (EXCEPT HOSPITALS), FREESTANDING",18393473,-77.3863854,38.8607798,NAVTEQ,2008Q1,ONENTITY,YES,TGS,UC_3700
3277,10194294,ADVANCED CARE INCORPORATED,434-572-8272,1129 NORTH MAIN STREET, ,SOUTH BOSTON,VA,24592,2547,SOUTH BOSTON CITY,51780,ON THE EAST SIDE OF N MAIN ST BETWEE HODGES ST AND BERNARD ST, , , ,2009/02/06 00:00:00+00,PHONE,2009/02/06 00:00:00+00,MANUAL,"CRITICAL INFRASTRUCTURE, PDD-63; PUBLIC HEALTH; PRIMARY CARE FACILITIES (INCLUDING HOSPITALS); AMBULATORY SURGICAL FACILITIES",621493,"URGENT MEDICAL CARE CENTERS AND CLINICS (EXCEPT HOSPITALS), FREESTANDING",18592153,-78.8979999,36.7041643,NAVTEQ,2008Q1,ONENTITY,YES,TGS,UC_3687
3278,11241579,REDI HEALTH CLINIC,540-989-7334,3971 BRAMBLETON AVENUE, ,ROANOKE,VA,24018,6402,ROANOKE,51161,ON THE WEST SIDE OF BRAMBLETON AVE BETWEEN WESTMORELAND DR AND VALLEY FORGE AVE, , , ,2009/02/06 00:00:00+00,PHONE,2009/02/06 00:00:00+00,MANUAL,"CRITICAL INFRASTRUCTURE, PDD-63; PUBLIC HEALTH; PRIMARY CARE FACILITIES (INCLUDING HOSPITALS); AMBULATORY SURGICAL FACILITIES",621493,"URGENT MEDICAL CARE CENTERS AND CLINICS (EXCEPT HOSPITALS), FREESTANDING",711564213,-80.0087241,37.2338919,NAVTEQ,2008Q1,ONENTITY,YES,TGS, 
3316,10192205,PEDIATRICS AT NITE,571-434-0400,21010 DULLES TOWN CIRCLE, ,DULLES,VA,20166,2477,LOUDOUN,51107,"FROM THE INTERSECTION OF NOKES BLVD & ATLANTIC BLVD TRAVEL NORTH APROX .15 ON ATLANTIC BLVD AND TURN EAST INTO THE ENTRANCE OF DULLES TOWN CENTER MALL, GO NORTH ON DULLES TOWN CIR APROX .06 MILES AND TURN EAST INTO PARKING LOT", , , ,2006/12/19 00:00:00+00,PHONE,2006/12/19 00:00:00+00,MANUAL,"CRITICAL INFRASTRUCTURE, PDD-63; PUBLIC HEALTH; PRIMARY CARE FACILITIES (INCLUDING HOSPITALS); AMBULATORY SURGICAL FACILITIES",621493,"URGENT MEDICAL CARE CENTERS AND CLINICS (EXCEPT HOSPITALS), FREESTANDING",24731356,-77.4260668,39.0309021,NAVTEQ,2008Q1,BLOCKFACE,YES,TGS,UC_3721
3320,10422263,CHIMNEY HILL MEDICAL ASSOCIATES AND URGENT CARE,757-962-8720,3745 HOLLAND ROAD, ,VIRGINIA BEACH,VA,23452,2847,VIRGINIA BEACH CITY,51810,ON THE SE CORNER OF HOLLAND RD AND CHASEWAY STREET., , , ,2009/01/14 00:00:00+00,PHONE,2009/01/14 00:00:00+00,MANUAL,"CRITICAL INFRASTRUCTURE, PDD-63; PUBLIC HEALTH; PRIMARY CARE FACILITIES (INCLUDING HOSPITALS); AMBULATORY SURGICAL FACILITIES",621493,"URGENT MEDICAL CARE CENTERS AND CLINICS (EXCEPT HOSPITALS), FREESTANDING",25228728,-76.1038435,36.8144891,NAVTEQ,2008Q1,ONENTITY,YES,TGS,UC_3747
3333,10844686,NOWCARE MEDICAL CENTER I,757-424-4300,6632 INDIAN RIVER ROAD, ,VIRGINIA CITY BEACH,VA,23464,3442,VIRGINIA BEACH CITY,51810,ON THE NE SIDE OF INDIAN RIVER RD ABOUT .1 MILES E OF THE INTERSECTION OF SANDRA LN AND INDIAN RIVER RD., , , ,2009/01/14 00:00:00+00,PHONE,2009/01/14 00:00:00+00,MANUAL,"CRITICAL INFRASTRUCTURE, PDD-63; PUBLIC HEALTH; PRIMARY CARE FACILITIES (INCLUDING HOSPITALS); AMBULATORY SURGICAL FACILITIES",621493,"URGENT MEDICAL CARE CENTERS AND CLINICS (EXCEPT HOSPITALS), FREESTANDING",19454503,-76.2199769,36.8195842,NAVTEQ,2008Q1,ONENTITY,YES,TGS, 
3345,10422279,NOWCARE MEDICAL CENTER II,757-587-0157,7924 CHESAPEAKE BOULEVARD,SUITE B,NORFOLK,VA,23518,3801,NORFOLK CITY,51710,LOCATED ON THE EAST SIDE OF CHESAPEAKE BLVD BETWEEN EAGLE AVE AND E LITTLE CREEK RD., , , ,2009/02/06 00:00:00+00,PHONE,2009/02/06 00:00:00+00,MANUAL,"CRITICAL INFRASTRUCTURE, PDD-63; PUBLIC HEALTH; PRIMARY CARE FACILITIES (INCLUDING HOSPITALS); AMBULATORY SURGICAL FACILITIES",621493,"URGENT MEDICAL CARE CENTERS AND CLINICS (EXCEPT HOSPITALS), FREESTANDING",25183093,-76.2409417,36.9160829,NAVTEQ,2008Q1,ONENTITY,YES,TGS,UC_3788
3354,11241559,PATIENT FIRST - MECHANICSVILLE,804-559-9900,7238 MECHANICSVILLE TURNPIKE, ,MECHANICSVILLE,VA,23111,3502,HANOVER,51085,LOCATED ON THE NE CORNER OF BELL CREEK RD AND MECHANICSVILLE TPKE, , , ,2009/02/06 00:00:00+00,PHONE,2009/02/06 00:00:00+00,MANUAL,"CRITICAL INFRASTRUCTURE, PDD-63; PUBLIC HEALTH; PRIMARY CARE FACILITIES (INCLUDING HOSPITALS); AMBULATORY SURGICAL FACILITIES",621493,"URGENT MEDICAL CARE CENTERS AND CLINICS (EXCEPT HOSPITALS), FREESTANDING",108607301,-77.3525574,37.6113167,NAVTEQ,2008Q1,ONENTITY,YES,TGS, 
3355,10844663,NOWCARE MEDICAL CENTER III,757-923-5360,2401 GODWIN BOULEVARD, ,SUFFOLK,VA,23434,8178,SUFFOLK CITY,51800,ON THE W SIDE OF GODWIN BOULEVARD BETWEEN WILLIAM REID DR AND HANNAH HUNT BLVD., , , ,2009/01/14 00:00:00+00,PHONE,2009/01/14 00:00:00+00,MANUAL,"CRITICAL INFRASTRUCTURE, PDD-63; PUBLIC HEALTH; PRIMARY CARE FACILITIES (INCLUDING HOSPITALS); AMBULATORY SURGICAL FACILITIES",621493,"URGENT MEDICAL CARE CENTERS AND CLINICS (EXCEPT HOSPITALS), FREESTANDING",25200404,-76.5870964,36.7630376,NAVTEQ,2008Q1,ONENTITY,YES,TGS, 
3361,10425828,DULLES URGENT CARE CENTER,703-542-7921,42010 VILLAGE CENTER PLAZA, ,STONE RIDGE,VA,20105,3032,LOUDOUN,51107,LOC ON THE SW SIDE OF VILLAGE CENTER PLZ APPROX 0.11 MILES NW OF STONE SPRINGS BLVD, , , ,2008/02/05 00:00:00+00,PHONE,2008/02/05 00:00:00+00,MANUAL,"CRITICAL INFRASTRUCTURE, PDD-63; PUBLIC HEALTH; PRIMARY CARE FACILITIES (INCLUDING HOSPITALS); AMBULATORY SURGICAL FACILITIES",621493,"URGENT MEDICAL CARE CENTERS AND CLINICS (EXCEPT HOSPITALS), FREESTANDING", ,-77.5482561,38.9389256,TGS,2008Q1,BLOCKFACE,YES,TGS, 
3384,10422249,PATIENT FIRST - CHESTER,804-796-3636,12101 SOUTH CHALKLEY ROAD, ,CHESTER,VA,23831,3755,CHESTERFIELD,51041,ON THE SOUTHEAST CORNER OF IRON BRIDGE RD AND S CHALKLEY RD, , , ,2009/02/05 00:00:00+00,PHONE,2009/02/05 00:00:00+00,MANUAL,"CRITICAL INFRASTRUCTURE, PDD-63; PUBLIC HEALTH; PRIMARY CARE FACILITIES (INCLUDING HOSPITALS); AMBULATORY SURGICAL FACILITIES",621493,"URGENT MEDICAL CARE CENTERS AND CLINICS (EXCEPT HOSPITALS), FREESTANDING",108645747,-77.4800988,37.3516447,NAVTEQ,2008Q1,ONENTITY,YES,TGS,UC_3693
3388,11241589,SPOTSYLVANIA EMERGI-CENTER,540-898-4516,10671 COURTHOUSE ROAD, ,FREDERICKSBURG,VA,22407,7743,SPOTSYLVANIA,51177,ON THE SOUTH SIDE OF COURTHOUSE RD BETWEEN RHOADS DR AND STONEY CREEK DR, , , ,2009/02/06 00:00:00+00,PHONE,2009/02/06 00:00:00+00,MANUAL,"CRITICAL INFRASTRUCTURE, PDD-63; PUBLIC HEALTH; PRIMARY CARE FACILITIES (INCLUDING HOSPITALS); AMBULATORY SURGICAL FACILITIES",621493,"URGENT MEDICAL CARE CENTERS AND CLINICS (EXCEPT HOSPITALS), FREESTANDING",101899106,-77.5156693,38.2463374,NAVTEQ,2008Q1,ONENTITY,YES,TGS, 
3396,10422256,PRIMARY CARE ASSOCIATES - WEST SALEM MEDICAL CENTER,540-387-0441,1935 WEST MAIN STREET, ,SALEM,VA,24153,3109,SALEM CITY,51775,LOC ON THE NW SIDE OF W MAIN ST BETWEEN WILDWOOD RD AND TURNER RD, , , ,2008/01/25 00:00:00+00,PHONE,2008/01/25 00:00:00+00,MANUAL,"CRITICAL INFRASTRUCTURE, PDD-63; PUBLIC HEALTH; PRIMARY CARE FACILITIES (INCLUDING HOSPITALS); AMBULATORY SURGICAL FACILITIES",621493,"URGENT MEDICAL CARE CENTERS AND CLINICS (EXCEPT HOSPITALS), FREESTANDING",90839439,-80.0911604,37.2895521,NAVTEQ,2006Q4,ONENTITY,YES,TGS,UC_3718
3419,11241538,MEDICS USA - ASHBURN,703-726-9401,44050 ASHBURN SHOPPING PLAZA,SUITE 179,ASHBURN,VA,20147,7916,LOUDOUN,51107,LOCATED ON THE SOUTHWEST CORNER OF THE INTERSECTION OF CHRISTIANA DR AND ASHBURN VILLAGE BLVD., , , ,2009/02/05 00:00:00+00,PHONE,2009/02/05 00:00:00+00,MANUAL,"CRITICAL INFRASTRUCTURE, PDD-63; PUBLIC HEALTH; PRIMARY CARE FACILITIES (INCLUDING HOSPITALS); AMBULATORY SURGICAL FACILITIES",621493,"URGENT MEDICAL CARE CENTERS AND CLINICS (EXCEPT HOSPITALS), FREESTANDING",18898573,-77.4738456,39.0445694,NAVTEQ,2008Q1,ONENTITY,YES,TGS, 
3435,11241544,LOUDON FAMILY MEDICAL CENTER,703-858-9192,19450 DEERFIELD AVENUE,SUITE 150,LEESBURG,VA,20176,8424,LOUDOUN,51107,LOCATED ON THE EAST CORNER OF THE INTERSECTION OF RIVERSIDE PKY AND DEERFIELD AVE., , , ,2009/02/05 00:00:00+00,PHONE,2009/02/05 00:00:00+00,MANUAL,"CRITICAL INFRASTRUCTURE, PDD-63; PUBLIC HEALTH; PRIMARY CARE FACILITIES (INCLUDING HOSPITALS); AMBULATORY SURGICAL FACILITIES",621493,"URGENT MEDICAL CARE CENTERS AND CLINICS (EXCEPT HOSPITALS), FREESTANDING",18560612,-77.4750961,39.0770261,NAVTEQ,2008Q1,ONENTITY,YES,TGS, 
3482,10422253,MCLEAN IMMEDIATE CARE,703-893-2273,1340 OLD CHAIN BRIDGE ROAD,SUITE 101,MCLEAN,VA,22101,3909,FAIRFAX,51059,LESS THAN .10 MILES NORTH OF OLD MCLEAN VILLAGE DR ON THE WEST SIDE OF OLD CHAIN BRIDGE RD, , , ,2009/02/05 00:00:00+00,PHONE,2009/02/05 00:00:00+00,MANUAL,"CRITICAL INFRASTRUCTURE, PDD-63; PUBLIC HEALTH; PRIMARY CARE FACILITIES (INCLUDING HOSPITALS); AMBULATORY SURGICAL FACILITIES",621493,"URGENT MEDICAL CARE CENTERS AND CLINICS (EXCEPT HOSPITALS), FREESTANDING",18477314,-77.1763757,38.9380153,NAVTEQ,2008Q1,ONENTITY,YES,TGS,UC_3706
3506,10193031,CENTREVILLE URGENT CARE,703-830-8113,14001 SAINT GERMAIN DRIVE,SUITE A,CENTREVILLE,VA,20121, ,FAIRFAX,51059,SW CORNER OF ST GERMAIN DR AND CENTREVILLE CREST LN, , , ,2006/12/18 00:00:00+00,PHONE,2006/12/18 00:00:00+00,MANUAL,"CRITICAL INFRASTRUCTURE, PDD-63; PUBLIC HEALTH; PRIMARY CARE FACILITIES (INCLUDING HOSPITALS); AMBULATORY SURGICAL FACILITIES",621493,"URGENT MEDICAL CARE CENTERS AND CLINICS (EXCEPT HOSPITALS), FREESTANDING",18394293,-77.4352495,38.8366779,NAVTEQ,2006Q3,ONENTITY,YES,TGS,UC_3708
3529,10193100,PRIME CARE URGENT AND FAMILY CARE,540-786-1200,2511 SALEM CHURCH ROAD, ,FREDERICKSBURG,VA,22407,6466,SPOTSYLVANIA,51177,.08 OF A MILE NORTHEAST OF THE INTERSECTION OF SALEM CHURCH ROAD AND SALEM RUN ROAD. ON THE EAST SIDE OF SALEM CHURCH ROAD., , , ,2006/12/18 00:00:00+00,PHONE,2006/12/18 00:00:00+00,MANUAL,"CRITICAL INFRASTRUCTURE, PDD-63; PUBLIC HEALTH; PRIMARY CARE FACILITIES (INCLUDING HOSPITALS); AMBULATORY SURGICAL FACILITIES",621493,"URGENT MEDICAL CARE CENTERS AND CLINICS (EXCEPT HOSPITALS), FREESTANDING",90802357,-77.5323502,38.2792932,NAVTEQ,2006Q3,ONENTITY,YES,TGS,UC_3734
3543,11241548,VIRGINIA MEDICAL CENTER,540-338-0032,609 EAST MAIN STREET, ,PURCELLVILLE,VA,20132,3182,LOUDOUN,51107,"LOCATED ON THE THE NORTH SIDE OF E MAIN ST, .1 MILE WEST OF THE INTERSECTION OF E MAIN ST AND N MAPLE AVE.", , , ,2009/02/05 00:00:00+00,PHONE,2009/02/05 00:00:00+00,MANUAL,"CRITICAL INFRASTRUCTURE, PDD-63; PUBLIC HEALTH; PRIMARY CARE FACILITIES (INCLUDING HOSPITALS); AMBULATORY SURGICAL FACILITIES",621493,"URGENT MEDICAL CARE CENTERS AND CLINICS (EXCEPT HOSPITALS), FREESTANDING",24773453,-77.7072151,39.1375299,NAVTEQ,2008Q1,ONENTITY,YES,TGS, 
3544,11513548,PATIENT FIRST - TAYLOR ROAD,757-215-1800,2425 TAYLOR ROAD, ,CHESAPEAKE,VA,23321,2201,CHESAPEAKE CITY,51550,ON THE WESTERN MOST SE CORNER OF RAINTREE RD AND TAYLOR RD, , , ,2009/02/18 00:00:00+00,PHONE,2009/02/18 00:00:00+00,MANUAL,"CRITICAL INFRASTRUCTURE, PDD-63; PUBLIC HEALTH; PRIMARY CARE FACILITIES (INCLUDING HOSPITALS); AMBULATORY SURGICAL FACILITIES",621493,"URGENT MEDICAL CARE CENTERS AND CLINICS (EXCEPT HOSPITALS), FREESTANDING",25228329,-76.4094302,36.8266299,NAVTEQ,2008Q1,BLOCKFACE,YES,TGS, 
3553,10422273,DOMINION URGENT CARE,703-569-7554,6370 SPRINGFIELD PLAZA, ,SPRINGFIELD,VA,22150,3431,FAIRFAX,51059,LOC ON THE NE CORNER OF THE SOUTHWESTERN MOST INTERSECTION OF SPRINGFIELD PLAZA AND COMMERCE ST, , , ,2008/01/25 00:00:00+00,PHONE,2008/01/25 00:00:00+00,MANUAL,"CRITICAL INFRASTRUCTURE, PDD-63; PUBLIC HEALTH; PRIMARY CARE FACILITIES (INCLUDING HOSPITALS); AMBULATORY SURGICAL FACILITIES",621493,"URGENT MEDICAL CARE CENTERS AND CLINICS (EXCEPT HOSPITALS), FREESTANDING",18476196,-77.1894923,38.7823066,NAVTEQ,2006Q4,ONENTITY,YES,TGS,UC_3774
3570,10422272,INOVA URGENT CARE CENTER - CENTREVILLE,703-830-5600,6201 CENTREVILLE ROAD,SUITE 200,CENTREVILLE,VA,20121,2626,FAIRFAX,51059,ON THE SOUTHEAST SIDE OF THE INTERSECTION OF CENTREVILLE RD AND MACHEN RD, , , ,2009/02/05 00:00:00+00,PHONE,2009/02/05 00:00:00+00,MANUAL,"CRITICAL INFRASTRUCTURE, PDD-63; PUBLIC HEALTH; PRIMARY CARE FACILITIES (INCLUDING HOSPITALS); AMBULATORY SURGICAL FACILITIES",621493,"URGENT MEDICAL CARE CENTERS AND CLINICS (EXCEPT HOSPITALS), FREESTANDING",18632483,-77.4341699,38.8292432,NAVTEQ,2008Q1,ONENTITY,YES,TGS,UC_3773
3571,11241564,INOVA URGENT CARE CENTER - ALEXANDRIA,703-797-6800,6355 WALKER LANE,SUITE 100,ALEXANDRIA,VA,22310,3244,FAIRFAX,51059,ON THE NORTHEAST CORNER OF WALKER LN AND FRANCONIA-SPRINGFIELD PKY, , , ,2009/02/09 00:00:00+00,PHONE,2009/02/09 00:00:00+00,MANUAL,"CRITICAL INFRASTRUCTURE, PDD-63; PUBLIC HEALTH; PRIMARY CARE FACILITIES (INCLUDING HOSPITALS); AMBULATORY SURGICAL FACILITIES",621493,"URGENT MEDICAL CARE CENTERS AND CLINICS (EXCEPT HOSPITALS), FREESTANDING",18376456,-77.160805,38.7673058,NAVTEQ,2008Q1,ONENTITY,YES,TGS, 
3572,10194329,SENTARA FAMILY PRACTICE SPECIALISTS AND URGENT CARE,757-363-6810,816 INDEPENDENCE BOULEVARD,SUITE 100,VIRGINIA BEACH,VA,23455,6010,VIRGINIA BEACH CITY,51810,ON THE E SIDE OF INDEPENDENCE BLVD ABOUT .1 MILES N OF THE INTERSECTION OF N WITCHDUCK RD AND INDEPENDENCE BLVD., , , ,2009/01/14 00:00:00+00,PHONE,2009/01/14 00:00:00+00,MANUAL,"CRITICAL INFRASTRUCTURE, PDD-63; PUBLIC HEALTH; PRIMARY CARE FACILITIES (INCLUDING HOSPITALS); AMBULATORY SURGICAL FACILITIES",621493,"URGENT MEDICAL CARE CENTERS AND CLINICS (EXCEPT HOSPITALS), FREESTANDING",25169958,-76.1319236,36.8672154,NAVTEQ,2008Q1,ONENTITY,YES,TGS,UC_3792
3574,11241577,HALIFAX PRIMARY CARE,434-517-3879,2232 WILBORN AVENUE, ,SOUTH BOSTON,VA,24592,1662,SOUTH BOSTON CITY,51780,ON THE SOUTHWEST CORNER OF HAMILTON BLVD AND WILBORN AVE, , , ,2009/02/06 00:00:00+00,PHONE,2009/02/06 00:00:00+00,MANUAL,"CRITICAL INFRASTRUCTURE, PDD-63; PUBLIC HEALTH; PRIMARY CARE FACILITIES (INCLUDING HOSPITALS); AMBULATORY SURGICAL FACILITIES",621493,"URGENT MEDICAL CARE CENTERS AND CLINICS (EXCEPT HOSPITALS), FREESTANDING",123418086,-78.9148649,36.7139948,NAVTEQ,2008Q1,ONENTITY,YES,TGS, 
3576,11513017,GARRISONVILLE URGENT CARE,540-288-2222,9 CENTER STREET,SUITE 101,STAFFORD,VA,22556,8910,STAFFORD,51179,ON THE WEST SIDE OF CENTER ST BETWEEN BARRETT HEIGHTS RD AND GARRISONVILLE RD, , , ,2009/02/09 00:00:00+00,PHONE,2009/02/09 00:00:00+00,MANUAL,"CRITICAL INFRASTRUCTURE, PDD-63; PUBLIC HEALTH; PRIMARY CARE FACILITIES (INCLUDING HOSPITALS); AMBULATORY SURGICAL FACILITIES",621493,"URGENT MEDICAL CARE CENTERS AND CLINICS (EXCEPT HOSPITALS), FREESTANDING",108638559,-77.4331127,38.4748309,NAVTEQ,2008Q1,ONENTITY,YES,TGS, 
3579,10844592,CARILION CLINIC URGENT CARE - ROANOKE,540-989-4929,3369 COLONIAL AVENUE, ,ROANOKE,VA,24015,3739,ROANOKE CITY,51770,ON THE NORTH SIDE OF COLONIAL AVE BETWEEN COLONIAL GREEN CIR SW AND WOODLAND DR SW, , , ,2009/02/06 00:00:00+00,PHONE,2009/02/06 00:00:00+00,MANUAL,"CRITICAL INFRASTRUCTURE, PDD-63; PUBLIC HEALTH; PRIMARY CARE FACILITIES (INCLUDING HOSPITALS); AMBULATORY SURGICAL FACILITIES",621493,"URGENT MEDICAL CARE CENTERS AND CLINICS (EXCEPT HOSPITALS), FREESTANDING",740921439,-79.9876806,37.2388509,NAVTEQ,2008Q1,ONENTITY,YES,TGS, 
3792,10844130,CONCENTRA URGENT CARE - ALEXANDRIA,703-914-6718,5590 GENERAL WASHINGTON DRIVE, ,ALEXANDRIA,VA,22312,2465,FAIRFAX,51059,ON THE WEST CORNER OF BREN MAR DR AND GENERAL WASHINGTON DR, , , ,2009/02/05 00:00:00+00,PHONE,2009/02/05 00:00:00+00,MANUAL,"CRITICAL INFRASTRUCTURE, PDD-63; PUBLIC HEALTH; PRIMARY CARE FACILITIES (INCLUDING HOSPITALS); AMBULATORY SURGICAL FACILITIES",621493,"URGENT MEDICAL CARE CENTERS AND CLINICS (EXCEPT HOSPITALS), FREESTANDING",18365883,-77.1635283,38.7996943,NAVTEQ,2008Q1,ONENTITY,YES,TGS, 
3801,11513054,WINCHESTER URGENT CARE,866-623-2416,2505 VALLEY AVENUE, ,WINCHESTER,VA,22601,2761,WINCHESTER CITY,51840,SOUTHWEST CORNER OF MASSANUTTEN TERRACE AND VALLEY AVENUE, , , ,2009/02/10 00:00:00+00,PHONE,2009/02/10 00:00:00+00,MANUAL,"CRITICAL INFRASTRUCTURE, PDD-63; PUBLIC HEALTH; PRIMARY CARE FACILITIES (INCLUDING HOSPITALS); AMBULATORY SURGICAL FACILITIES",621493,"URGENT MEDICAL CARE CENTERS AND CLINICS (EXCEPT HOSPITALS), FREESTANDING",128087074,-78.1867815,39.157605,NAVTEQ,2008Q1,ONENTITY,YES,TGS, 
3815,11241566,PRIMARY CARE ASSOCIATES - BRAEBURN MEDICAL CENTER,540-772-4540,1930 BRAEBURN CIRCLE, ,SALEM,VA,24153,7388,SALEM CITY,51775,ON THE EAST SIDE OF BRAEBURN CIR ;ESS THAN .1 MILES SOUTH OF BRAEBURN DR, , , ,2009/02/06 00:00:00+00,PHONE,2009/02/06 00:00:00+00,MANUAL,"CRITICAL INFRASTRUCTURE, PDD-63; PUBLIC HEALTH; PRIMARY CARE FACILITIES (INCLUDING HOSPITALS); AMBULATORY SURGICAL FACILITIES",621493,"URGENT MEDICAL CARE CENTERS AND CLINICS (EXCEPT HOSPITALS), FREESTANDING",90896427,-80.0263462,37.263212,NAVTEQ,2008Q1,ONENTITY,YES,TGS, 
3834,10422245,FIRST COLONIAL FAMILY PRACTICE AND URGENT CARE CENTER,757-481-2333,1120 FIRST COLONIAL ROAD, ,VIRGINIA BEACH,VA,23454,2418,VIRGINIA BEACH CITY,51810,ON THE NE SIDE OF FIRST COLONIAL RD DIRECTLY ACROSS FROM THE T-INTERSECTION OF BANCROFT HALL DR AND FIRST COLONIAL RD, , , ,2009/01/14 00:00:00+00,PHONE,2009/01/14 00:00:00+00,MANUAL,"CRITICAL INFRASTRUCTURE, PDD-63; PUBLIC HEALTH; PRIMARY CARE FACILITIES (INCLUDING HOSPITALS); AMBULATORY SURGICAL FACILITIES",621493,"URGENT MEDICAL CARE CENTERS AND CLINICS (EXCEPT HOSPITALS), FREESTANDING",25222254,-76.0289227,36.8668421,NAVTEQ,2008Q1,ONENTITY,YES,TGS,UC_3686
3845,10422269,PROVIDENCE ROAD FAMILY PRACTICE AND URGENT CARE,757-413-7600,5320 PROVIDENCE ROAD,SUITE 101,VIRGINIA BEACH,VA,23464,4122,VIRGINIA BEACH CITY,51810,ON THE NW CORNER OF PROVIDENCE RD AND WALTON DR, , , ,2009/01/14 00:00:00+00,PHONE,2009/01/14 00:00:00+00,MANUAL,"CRITICAL INFRASTRUCTURE, PDD-63; PUBLIC HEALTH; PRIMARY CARE FACILITIES (INCLUDING HOSPITALS); AMBULATORY SURGICAL FACILITIES",621493,"URGENT MEDICAL CARE CENTERS AND CLINICS (EXCEPT HOSPITALS), FREESTANDING",25173857,-76.1731553,36.8152114,NAVTEQ,2008Q1,ONENTITY,YES,TGS,UC_3765
3894,10422276,MANASSAS URGENT CARE - ALTMED MEDICAL CENTER,703-631-9695,7524 DIPLOMAT DRIVE,SUITE 101,MANASSAS,VA,20109,2685,PRINCE WILLIAM,51153,LOC ON THE NE SIDE OF DIPLOMAT DR 0.05 MILES SE OF THE INT OF DIPLOMAT DR AND COVERSTONE LANE., , , ,2008/01/25 00:00:00+00,PHONE,2008/01/25 00:00:00+00,MANUAL,"CRITICAL INFRASTRUCTURE, PDD-63; PUBLIC HEALTH; PRIMARY CARE FACILITIES (INCLUDING HOSPITALS); AMBULATORY SURGICAL FACILITIES",621493,"URGENT MEDICAL CARE CENTERS AND CLINICS (EXCEPT HOSPITALS), FREESTANDING",24788417,-77.5180383,38.7942491,NAVTEQ,2006Q4,ONENTITY,YES,TGS,UC_3784
3895,10422264,ARLINGTON CLINIC,703-522-8840,4040 NORTH FAIRFAX DRIVE,SUITE 140,ARLINGTON,VA,22203,1613,ARLINGTON,51013,LOC ON THE SE CORNER OF THE INT OF N FAIRFAX DR AND N RANDOLPH ST., , , ,2008/01/25 00:00:00+00,PHONE,2008/01/25 00:00:00+00,MANUAL,"CRITICAL INFRASTRUCTURE, PDD-63; PUBLIC HEALTH; PRIMARY CARE FACILITIES (INCLUDING HOSPITALS); AMBULATORY SURGICAL FACILITIES",621493,"URGENT MEDICAL CARE CENTERS AND CLINICS (EXCEPT HOSPITALS), FREESTANDING",128081214,-77.1088017,38.8820961,NAVTEQ,2006Q4,ONENTITY,YES,TGS,UC_3748
3897,11513116,MY URGENT CARE - WOODBRIDGE,703-497-1234,14573 POTOMAC MILLS ROAD, ,WOODBRIDGE,VA,22192,6808,PRINCE WILLIAM,51153,"LOCATED ON THE SOUTHWEST SIDE OF OPITZ BLVD, BETWEEN POTOMAC MILLS RD AND TELEGRAPH RD.", , , ,2009/02/11 00:00:00+00,PHONE,2009/02/11 00:00:00+00,MANUAL,"CRITICAL INFRASTRUCTURE, PDD-63; PUBLIC HEALTH; PRIMARY CARE FACILITIES (INCLUDING HOSPITALS); AMBULATORY SURGICAL FACILITIES",621493,"URGENT MEDICAL CARE CENTERS AND CLINICS (EXCEPT HOSPITALS), FREESTANDING",128079788,-77.2944201,38.6352524,NAVTEQ,2008Q1,ONENTITY,YES,TGS, 
3909,10422258,PATIENT FIRST - WOODMAN,804-264-7808,2300 EAST PARHAM ROAD, ,RICHMOND,VA,23228,3118,HENRICO,51087,ON THE NW CORNER OF WOODMAN RD AND E PARHAM RD, , , ,2009/02/05 00:00:00+00,PHONE,2009/02/05 00:00:00+00,MANUAL,"CRITICAL INFRASTRUCTURE, PDD-63; PUBLIC HEALTH; PRIMARY CARE FACILITIES (INCLUDING HOSPITALS); AMBULATORY SURGICAL FACILITIES",621493,"URGENT MEDICAL CARE CENTERS AND CLINICS (EXCEPT HOSPITALS), FREESTANDING",18908524,-77.4921862,37.6399219,NAVTEQ,2008Q1,ONENTITY,YES,TGS,UC_3729
3910,10422274,PRIME MEDICAL CENTER,703-532-1100,6720 ARLINGTON BOULEVARD, ,FALLS CHURCH,VA,22042,2105,FAIRFAX,51059,LOC ON THE NE CORNER OF THE INT OF E TRIPPS RUN RD AND ARLINGTON BLVD, , , ,2008/01/25 00:00:00+00,PHONE,2008/01/25 00:00:00+00,MANUAL,"CRITICAL INFRASTRUCTURE, PDD-63; PUBLIC HEALTH; PRIMARY CARE FACILITIES (INCLUDING HOSPITALS); AMBULATORY SURGICAL FACILITIES",621493,"URGENT MEDICAL CARE CENTERS AND CLINICS (EXCEPT HOSPITALS), FREESTANDING",18356237,-77.1769078,38.8697793,NAVTEQ,2006Q4,ONENTITY,YES,TGS,UC_3775
3911,10422275,PATIENT FIRST - BATTLEFIELD,757-547-0688,705 NORTH BATTLEFIELD BOULEVARD, ,CHESAPEAKE,VA,23320,4901,CHESAPEAKE CITY,51550,LOC ON THE NE SIDE OF N BATTLEFIELD BLVD BETWEEN MEDICAL PKY E AND E GAINSBOROUGH SQ., , , ,2008/01/25 00:00:00+00,PHONE,2008/01/25 00:00:00+00,MANUAL,"CRITICAL INFRASTRUCTURE, PDD-63; PUBLIC HEALTH; PRIMARY CARE FACILITIES (INCLUDING HOSPITALS); AMBULATORY SURGICAL FACILITIES",621493,"URGENT MEDICAL CARE CENTERS AND CLINICS (EXCEPT HOSPITALS), FREESTANDING",19449510,-76.2433717,36.7440364,NAVTEQ,2006Q4,ONENTITY,YES,TGS,UC_3780
3912,10422261,PATIENT FIRST - HOLLAND,757-468-1855,3432 HOLLAND ROAD, ,VIRGINIA BEACH,VA,23452,4846,VIRGINIA BEACH CITY,51810,LOC ON THE NE SIDE OF HOLLAND RD BETWEEN STONE SHORE RD AND HOLLAND LAKE SHOPPING CENTER, , , ,2008/01/25 00:00:00+00,PHONE,2008/01/25 00:00:00+00,MANUAL,"CRITICAL INFRASTRUCTURE, PDD-63; PUBLIC HEALTH; PRIMARY CARE FACILITIES (INCLUDING HOSPITALS); AMBULATORY SURGICAL FACILITIES",621493,"URGENT MEDICAL CARE CENTERS AND CLINICS (EXCEPT HOSPITALS), FREESTANDING",123641463,-76.0913281,36.8080536,NAVTEQ,2006Q4,ONENTITY,YES,TGS,UC_3744
3915,10422277,SENTARA URGENT CARE,757-599-6117,747 J CLYDE MORRIS BOULEVARD, ,NEWPORT NEWS,VA,23601,1538,NEWPORT NEWS CITY,51700,LOC ON THE NW SIDE OF J CLYDE MORRIS BLVD BETWEEN THIMBLE SHOALS BLVD AND SIERRA DR, , , ,2008/01/25 00:00:00+00,PHONE,2008/01/25 00:00:00+00,MANUAL,"CRITICAL INFRASTRUCTURE, PDD-63; PUBLIC HEALTH; PRIMARY CARE FACILITIES (INCLUDING HOSPITALS); AMBULATORY SURGICAL FACILITIES",621493,"URGENT MEDICAL CARE CENTERS AND CLINICS (EXCEPT HOSPITALS), FREESTANDING",25216593,-76.4636321,37.0789022,NAVTEQ,2006Q4,ONENTITY,YES,TGS,UC_3785
3925,10193057,MEDICS USA URGENT CARE,540-338-3360,17336 PICKWICK DRIVE, ,PURCELLVILLE,VA,20132,3143,LOUDOUN,51107,EAST SIDE OF PICKWICK DRIVE. BETWEEN EAST MAIN STREET AND REMINGTON DRIVE., , , ,2006/12/18 00:00:00+00,PHONE,2006/12/18 00:00:00+00,MANUAL,"CRITICAL INFRASTRUCTURE, PDD-63; PUBLIC HEALTH; PRIMARY CARE FACILITIES (INCLUDING HOSPITALS); AMBULATORY SURGICAL FACILITIES",621493,"URGENT MEDICAL CARE CENTERS AND CLINICS (EXCEPT HOSPITALS), FREESTANDING",24790094,-77.6960027,39.1366482,NAVTEQ,2008Q1,BLOCKFACE,YES,TGS,UC_3717
3926,10422244,INOVA URGENT CARE CENTER - VIENNA,703-938-5300,100 MAPLE AVENUE EAST, ,VIENNA,VA,22180,5723,FAIRFAX,51059,ON THE NORTH CORNER OF MAPLE AVE E AND CENTER ST N, , , ,2009/02/05 00:00:00+00,PHONE,2009/02/05 00:00:00+00,MANUAL,"CRITICAL INFRASTRUCTURE, PDD-63; PUBLIC HEALTH; PRIMARY CARE FACILITIES (INCLUDING HOSPITALS); AMBULATORY SURGICAL FACILITIES",621493,"URGENT MEDICAL CARE CENTERS AND CLINICS (EXCEPT HOSPITALS), FREESTANDING",18398795,-77.2652616,38.9018812,NAVTEQ,2008Q1,ONENTITY,YES,TGS,UC_3681
3949,10844599,SENTARA NEW TOWN URGENT CARE,757-259-1900,4374 NEW TOWN AVENUE,SUITE 100,WILLIAMSBURG,VA,23188,2688,JAMES CITY,51095,"LOCATED ON THE SOUTHEAST SIDE OF NEW TOWN AVE, .1 MILE NORTHEAST OF THE INTERSECTION OF DISCOVERY PARK BLVD AND NEW TOWN AVE.", , , ,2009/02/05 00:00:00+00,PHONE,2009/02/05 00:00:00+00,MANUAL,"CRITICAL INFRASTRUCTURE, PDD-63; PUBLIC HEALTH; PRIMARY CARE FACILITIES (INCLUDING HOSPITALS); AMBULATORY SURGICAL FACILITIES",621493,"URGENT MEDICAL CARE CENTERS AND CLINICS (EXCEPT HOSPITALS), FREESTANDING",735425223,-76.7380104,37.2812796,NAVTEQ,2008Q1,ONENTITY,YES,TGS, 
3951,10422282,PATIENT FIRST - OCEANA,757-425-8590,1232 PERIMETER PARKWAY, ,VIRGINIA BEACH,VA,23454,5689,VIRGINIA BEACH CITY,51810,ON THE N SIDE OF PERIMETER PKY ABOUT .1 MILES W OF THE INTERSECTION OF PERIMETER PKY AND CORPORATE LANDING PKY., , , ,2009/01/13 00:00:00+00,PHONE,2009/01/14 00:00:00+00,MANUAL,"CRITICAL INFRASTRUCTURE, PDD-63; PUBLIC HEALTH; PRIMARY CARE FACILITIES (INCLUDING HOSPITALS); AMBULATORY SURGICAL FACILITIES",621493,"URGENT MEDICAL CARE CENTERS AND CLINICS (EXCEPT HOSPITALS), FREESTANDING",25231242,-76.0133596,36.7851894,NAVTEQ,2008Q1,ONENTITY,YES,TGS,UC_3799
3963,11513055,PATIENT FIRST - NEWPORT NEWS,757-283-8300,611 DENBIGH BOULEVARD, ,NEWPORT NEWS,VA,23608,4415,NEWPORT NEWS CITY,51700,LOCATED ON THE WEST SIDE OF DENBIGH BLVD BETWEEN JEFFERSON AVE AND STONEY CREEK LN., , , ,2009/02/10 00:00:00+00,PHONE,2009/02/10 00:00:00+00,MANUAL,"CRITICAL INFRASTRUCTURE, PDD-63; PUBLIC HEALTH; PRIMARY CARE FACILITIES (INCLUDING HOSPITALS); AMBULATORY SURGICAL FACILITIES",621493,"URGENT MEDICAL CARE CENTERS AND CLINICS (EXCEPT HOSPITALS), FREESTANDING",25241282,-76.5192517,37.1400104,NAVTEQ,2008Q1,ONENTITY,YES,TGS, 
3973,10194301,FIRST MEDICAL URGENT CARE INCORPORATED,434-984-4200,125 RIVERBEND DRIVE, ,CHARLOTTESVILLE,VA,22911,8695,ALBEMARLE,51003,ON THE E SIDE OF RIVERBEND DR LESS THEN .1 MI S OF RICHMOND DR, , , ,2009/02/04 00:00:00+00,PHONE,2009/02/04 00:00:00+00,MANUAL,"CRITICAL INFRASTRUCTURE, PDD-63; PUBLIC HEALTH; PRIMARY CARE FACILITIES (INCLUDING HOSPITALS); AMBULATORY SURGICAL FACILITIES",621493,"URGENT MEDICAL CARE CENTERS AND CLINICS (EXCEPT HOSPITALS), FREESTANDING",101728901,-78.4545984,38.0329283,NAVTEQ,2008Q1,ONENTITY,YES,TGS,UC_3698
3986,10422281,NDC MEDICAL CENTER - INTERNAL MEDICINE AND URGENT CARE,757-261-5910,850 KEMPSVILLE ROAD, ,NORFOLK,VA,23502,3920,NORFOLK CITY,51710,LOCATED ON THE EAST SIDE OF KEMPSVILLE ROAD .10 MILES SOUTH OF THE INTERSECTION OF WELLVILLE ST AND KEMPSVILLE RD., , , ,2009/02/06 00:00:00+00,PHONE,2009/02/06 00:00:00+00,MANUAL,"CRITICAL INFRASTRUCTURE, PDD-63; PUBLIC HEALTH; PRIMARY CARE FACILITIES (INCLUDING HOSPITALS); AMBULATORY SURGICAL FACILITIES",621493,"URGENT MEDICAL CARE CENTERS AND CLINICS (EXCEPT HOSPITALS), FREESTANDING",25171123,-76.1918676,36.8531581,NAVTEQ,2008Q1,ONENTITY,YES,TGS,UC_3794
4012,10844594,FALLS CHURCH URGENT CARE,703-538-1505,920-B WEST BROAD STREET, ,FALLS CHURCH,VA,22046,3137,FALLS CHURCH CITY,51610,LOC ON THE NE SIDE OF W BROAD ST .1 MI SE OF N WEST ST., , , ,2009/02/06 00:00:00+00,PHONE,2009/02/06 00:00:00+00,MANUAL,"CRITICAL INFRASTRUCTURE, PDD-63; PUBLIC HEALTH; PRIMARY CARE FACILITIES (INCLUDING HOSPITALS); AMBULATORY SURGICAL FACILITIES",621493,"URGENT MEDICAL CARE CENTERS AND CLINICS (EXCEPT HOSPITALS), FREESTANDING",18452441,-77.1830878,38.8902605,NAVTEQ,2008Q1,ONENTITY,YES,TGS, 
4015,11521794,AMELON IMMEDIATE CARE,434-929-1095,200 AMELON SQUARE, ,MADISON HEIGHTS,VA,24572,5981,AMHERST,51009,LOCATED ON THE NORTHEAST CORNER OF AMHERST HWY AND AMELON SQ, , , ,2009/03/30 00:00:00+00,PHONE,2009/03/30 00:00:00+00,MANUAL,"CRITICAL INFRASTRUCTURE, PDD-63; PUBLIC HEALTH; PRIMARY CARE FACILITIES (INCLUDING HOSPITALS); AMBULATORY SURGICAL FACILITIES",621493,"URGENT MEDICAL CARE CENTERS AND CLINICS (EXCEPT HOSPITALS), FREESTANDING",123408417,-79.1166156,37.4681139,NAVTEQ,2008Q1,ONENTITY,YES,TGS, 
4016,11241568,FAIRFAX CONVENIENT CARE,703-849-0900,8301 ARLINGTON BOULEVARD,SUITE 100,FAIRFAX,VA,22031,2902,FAIRFAX,51059,ON THE EAST SIDE OF WILLIAMS DR BETWEEN WILLOW OAKS CORPORATE DR AND ARLINGTON BLVD, , , ,2009/02/06 00:00:00+00,PHONE,2009/02/06 00:00:00+00,MANUAL,"CRITICAL INFRASTRUCTURE, PDD-63; PUBLIC HEALTH; PRIMARY CARE FACILITIES (INCLUDING HOSPITALS); AMBULATORY SURGICAL FACILITIES",621493,"URGENT MEDICAL CARE CENTERS AND CLINICS (EXCEPT HOSPITALS), FREESTANDING",18356918,-77.2313179,38.8649766,NAVTEQ,2008Q1,ONENTITY,YES,TGS, 
4032,10425817,ADVANCED URGENT CARE PRIVATE CORPORATION,571-261-4165,7200 HERITAGE VILLAGE PLAZA,SUITE 101,GAINESVILLE,VA,20155,3070,PRINCE WILLIAM,51153,LOC ON THE SW SIDE OF HERITAGE VILLAGE PLZ APPROX 0.11MILES SW OF THE EASTERNMOST INTERSECTION OF HEALTHCOTE BLVD AND HERITAGE VILLAGE PLZ, , , ,2008/02/06 00:00:00+00,PHONE,2008/02/05 00:00:00+00,MANUAL,"CRITICAL INFRASTRUCTURE, PDD-63; PUBLIC HEALTH; PRIMARY CARE FACILITIES (INCLUDING HOSPITALS); AMBULATORY SURGICAL FACILITIES",621493,"URGENT MEDICAL CARE CENTERS AND CLINICS (EXCEPT HOSPITALS), FREESTANDING",128073542,-77.6031248,38.8034237,NAVTEQ,2008Q1,BLOCKFACE,YES,TGS, 
4035,10468059,MARTINSVILLE URGENT CARE LIMITED LIABILITY COMPANY,276-634-0010,1044 EAST CHURCH STREET, ,MARTINSVILLE,VA,24112,3232,MARTINSVILLE CITY,51690,LOCATED ON THE SOUTHWEST CORNER OF SALMON ST AND E CHURCH ST, , , ,2009/02/09 00:00:00+00,PHONE,2009/02/09 00:00:00+00,MANUAL,"CRITICAL INFRASTRUCTURE, PDD-63; PUBLIC HEALTH; PRIMARY CARE FACILITIES (INCLUDING HOSPITALS); AMBULATORY SURGICAL FACILITIES",621493,"URGENT MEDICAL CARE CENTERS AND CLINICS (EXCEPT HOSPITALS), FREESTANDING",101696301,-79.8456938,36.6929836,NAVTEQ,2008Q1,ONENTITY,YES,TGS, 
4105,10470779,MED FIRST URGENT CARE,703-503-1112,9452 MAIN STREET, ,FAIRFAX,VA,22031,4032,FAIRFAX CITY,51600,ON THE NORTH SIDE OF MAIN ST IN BETWEEN PICKETT RD AND PERSIMMON DR., , , ,2008/03/17 00:00:00+00,PHONE,2008/03/17 00:00:00+00,MANUAL,"CRITICAL INFRASTRUCTURE, PDD-63; PUBLIC HEALTH; PRIMARY CARE FACILITIES (INCLUDING HOSPITALS); AMBULATORY SURGICAL FACILITIES",621493,"URGENT MEDICAL CARE CENTERS AND CLINICS (EXCEPT HOSPITALS), FREESTANDING",123664089,-77.2707939,38.8414086,NAVTEQ,2008Q1,BLOCKFACE,YES,TGS, 
4107,11527319,CLEARBROOK MEDICAL CENTER,540-772-3979,5303 INDIAN GRAVE ROAD, ,ROANOKE,VA,24018,9107,ROANOKE,51161,LOCATED ON THE WEST CORNER OF FRANKLIN RD SW AND INDIAN GRAVE RD SW., , , ,2009/04/23 00:00:00+00,PHONE,2009/04/23 00:00:00+00,MANUAL,"CRITICAL INFRASTRUCTURE, PDD-63; PUBLIC HEALTH; PRIMARY CARE FACILITIES (INCLUDING HOSPITALS); AMBULATORY SURGICAL FACILITIES",621493,"URGENT MEDICAL CARE CENTERS AND CLINICS (EXCEPT HOSPITALS), FREESTANDING",90888987,-79.9504583,37.2029353,NAVTEQ,2008Q1,ONENTITY,YES,TGS, 
4141,10993675,DOCTORS INN URGENT CARE,757-428-1911,1788 REPUBLIC ROAD, ,VIRGINIA BEACH,VA,23454,4552,VIRGINIA BEACH CITY,51810,ON THE NW SIDE OF REPUBLIC RD ABOUT .2 MILES NE OF THE INTERSECTION OF REPUBLIC RD AND LASKIN RD., , , ,2009/01/26 00:00:00+00,PHONE,2009/01/26 00:00:00+00,MANUAL,"CRITICAL INFRASTRUCTURE, PDD-63; PUBLIC HEALTH; PRIMARY CARE FACILITIES (INCLUDING HOSPITALS); AMBULATORY SURGICAL FACILITIES",621493,"URGENT MEDICAL CARE CENTERS AND CLINICS (EXCEPT HOSPITALS), FREESTANDING",739458745,-76.0268642,36.8525461,NAVTEQ,2008Q1,ONENTITY,YES,TGS, 
4142,10993677,DOCTORS ON CALL - PROVIDENCE,757-495-5003,5232 PROVIDENCE ROAD, ,VIRGINIA BEACH,VA,23464,4202,VIRGINIA BEACH CITY,51810,ON THE N SIDE OF PROVIDENCE RD ABOUT .1 MILES E OF THE INTERSECTION OF PROFAIR WAY AND PROVIDENCE RD., , , ,2009/01/26 00:00:00+00,PHONE,2009/01/26 00:00:00+00,MANUAL,"CRITICAL INFRASTRUCTURE, PDD-63; PUBLIC HEALTH; PRIMARY CARE FACILITIES (INCLUDING HOSPITALS); AMBULATORY SURGICAL FACILITIES",621493,"URGENT MEDICAL CARE CENTERS AND CLINICS (EXCEPT HOSPITALS), FREESTANDING",113331222,-76.1673884,36.8141517,NAVTEQ,2008Q1,ONENTITY,YES,TGS, 
4143,10993679,DOCTORS ON CALL - GREAT NECK,757-481-0303,1368 GREAT NECK ROAD, ,VIRGINIA BEACH,VA,23454,2239,VIRGINIA BEACH CITY,51810,ON THE N CORNER OF GREAT NECK VLG AND N GREAT NECK RD., , , ,2009/01/26 00:00:00+00,PHONE,2009/01/26 00:00:00+00,MANUAL,"CRITICAL INFRASTRUCTURE, PDD-63; PUBLIC HEALTH; PRIMARY CARE FACILITIES (INCLUDING HOSPITALS); AMBULATORY SURGICAL FACILITIES",621493,"URGENT MEDICAL CARE CENTERS AND CLINICS (EXCEPT HOSPITALS), FREESTANDING",123641364,-76.0410383,36.8781524,NAVTEQ,2008Q1,ONENTITY,YES,TGS, 
4201,10422254,PATIENT FIRST - GENERAL BOOTH,757-721-0512,1605 GENERAL BOOTH BOULEVARD, ,VIRGINIA BEACH,VA,23454,5691,VIRGINIA BEACH CITY,51810,ON THE NW SIDE OF GENERAL BOOTH BLVD ABOUT .1 MILES SW OF THE INTERSECTION OF DAM NECK RD AND GENERAL BOOTH BLVD., , , ,2009/01/13 00:00:00+00,PHONE,2009/01/13 00:00:00+00,MANUAL,"CRITICAL INFRASTRUCTURE, PDD-63; PUBLIC HEALTH; PRIMARY CARE FACILITIES (INCLUDING HOSPITALS); AMBULATORY SURGICAL FACILITIES",621493,"URGENT MEDICAL CARE CENTERS AND CLINICS (EXCEPT HOSPITALS), FREESTANDING",25231235,-76.000488,36.7851354,NAVTEQ,2008Q1,ONENTITY,YES,TGS,UC_3715
4202,10194315,PATIENT FIRST - NEWTOWN,757-473-8400,332 NEWTOWN ROAD, ,VIRGINIA BEACH,VA,23462,1793,VIRGINIA BEACH CITY,51810,ON THE SE CORNER OF CLEVELAND ST AND N NEWTOWN ROAD., , , ,2009/01/13 00:00:00+00,PHONE,2009/01/13 00:00:00+00,MANUAL,"CRITICAL INFRASTRUCTURE, PDD-63; PUBLIC HEALTH; PRIMARY CARE FACILITIES (INCLUDING HOSPITALS); AMBULATORY SURGICAL FACILITIES",621493,"URGENT MEDICAL CARE CENTERS AND CLINICS (EXCEPT HOSPITALS), FREESTANDING",123663872,-76.1793838,36.8489825,NAVTEQ,2008Q1,ONENTITY,YES,TGS,UC_3740
4233,10844131,CONCENTRA MEDICAL CENTER - RICHMOND CENTRAL,804-358-0361,4301 WEST BROAD STREET, ,RICHMOND,VA,23230,3305,RICHMOND CITY,51760,LOCATED ON THE SOUTHWEST CORNER OF W BROAD ST AND SAUR AVE., , , ,2009/02/06 00:00:00+00,PHONE,2009/02/06 00:00:00+00,MANUAL,"CRITICAL INFRASTRUCTURE, PDD-63; PUBLIC HEALTH; PRIMARY CARE FACILITIES (INCLUDING HOSPITALS); AMBULATORY SURGICAL FACILITIES",621493,"URGENT MEDICAL CARE CENTERS AND CLINICS (EXCEPT HOSPITALS), FREESTANDING",18921820,-77.4862987,37.5752904,NAVTEQ,2008Q1,ONENTITY,YES,TGS, 
4245,10192033,NOVA URGENT CARE - LEESBURG,703-777-9701,51 CATOCTIN CIRCLE NORTHEAST, ,LEESBURG,VA,20176,3100,LOUDOUN,51107,SOUTHEAST SIDE OF CATOCTIN CIRCLE NORTHEAST. BETWEEN EAST MARKET STREET AND EDWARDS FERRY ROAD NORTHEAST., , , ,2006/12/18 00:00:00+00,PHONE,2006/12/18 00:00:00+00,MANUAL,"CRITICAL INFRASTRUCTURE, PDD-63; PUBLIC HEALTH; PRIMARY CARE FACILITIES (INCLUDING HOSPITALS); AMBULATORY SURGICAL FACILITIES",621493,"URGENT MEDICAL CARE CENTERS AND CLINICS (EXCEPT HOSPITALS), FREESTANDING",24774450,-77.5540264,39.1119712,NAVTEQ,2008Q1,BLOCKFACE,YES,TGS,UC_3759
4247,10193080,NOVA URGENT CARE - STERLING,703-430-4343,21036 TRIPLE SEVEN ROAD,SUITE 100,STERLING,VA,20165,8757,LOUDOUN,51107,LOCATED ON THE EAST CORNER OF THE INTERSECTION OF HARRY BYRD HWY AND PALISADE PKY., , , ,2009/02/05 00:00:00+00,PHONE,2009/02/05 00:00:00+00,MANUAL,"CRITICAL INFRASTRUCTURE, PDD-63; PUBLIC HEALTH; PRIMARY CARE FACILITIES (INCLUDING HOSPITALS); AMBULATORY SURGICAL FACILITIES",621493,"URGENT MEDICAL CARE CENTERS AND CLINICS (EXCEPT HOSPITALS), FREESTANDING",24725217,-77.4065998,39.0336497,NAVTEQ,2008Q1,ONENTITY,YES,TGS,UC_3722
4259,10422248,FAIR OAKS WALK IN CARE - FAIRFAX,703-385-8378,12011 LEE JACKSON MEMORIAL HIGHWAY,SUITE 102,FAIRFAX,VA,22033,3310,FAIRFAX,51059,LOC ON THE SW SIDE OF LEE JACKSON MEMORIAL HWY 0.25 MILES SE OF THE INT OF LEE JACKSON MEMORIAL HWY AND VA-608, , , ,2008/01/25 00:00:00+00,PHONE,2008/01/25 00:00:00+00,MANUAL,"CRITICAL INFRASTRUCTURE, PDD-63; PUBLIC HEALTH; PRIMARY CARE FACILITIES (INCLUDING HOSPITALS); AMBULATORY SURGICAL FACILITIES",621493,"URGENT MEDICAL CARE CENTERS AND CLINICS (EXCEPT HOSPITALS), FREESTANDING",18370999,-77.3610726,38.8660812,NAVTEQ,2006Q4,ONENTITY,YES,TGS,UC_3692
4280,10192831,NOVA URGENT CARE - WARRENTON,540-347-0400,528 WATERLOO ROAD, ,WARRENTON,VA,20186,3011,FAUQUIER,51061,.03 OF A MILE WEST OF THE INTERSECTION OF WATERLOO ROAD AND RAPPAHANNOCK STREET. ON THE SOUTH SIDE OF WATERLOO ROAD., , , ,2006/12/18 00:00:00+00,PHONE,2006/12/18 00:00:00+00,MANUAL,"CRITICAL INFRASTRUCTURE, PDD-63; PUBLIC HEALTH; PRIMARY CARE FACILITIES (INCLUDING HOSPITALS); AMBULATORY SURGICAL FACILITIES",621493,"URGENT MEDICAL CARE CENTERS AND CLINICS (EXCEPT HOSPITALS), FREESTANDING",40043544,-77.8097034,38.7175304,NAVTEQ,2006Q3,ONENTITY,YES,TGS, 
4291,11241473,HAYFIELD URGENT CARE,703-778-0400,7598 TELEGRAPH ROAD,SUITE 100,ALEXANDRIA,VA,22315,3829,FAIRFAX,51059,ON THE N CORNER OF TELEGRAPH RD AND HAYFIELD RD, , , ,2009/02/04 00:00:00+00,PHONE,2009/02/04 00:00:00+00,MANUAL,"CRITICAL INFRASTRUCTURE, PDD-63; PUBLIC HEALTH; PRIMARY CARE FACILITIES (INCLUDING HOSPITALS); AMBULATORY SURGICAL FACILITIES",621493,"URGENT MEDICAL CARE CENTERS AND CLINICS (EXCEPT HOSPITALS), FREESTANDING",123663672,-77.1399126,38.7526845,NAVTEQ,2008Q1,ONENTITY,YES,TGS, 
4292,10422280,PATIENT FIRST - MIDLOTHIAN,804-320-8160,8110 MIDLOTHIAN TURNPIKE, ,RICHMOND,VA,23235,5116,CHESTERFIELD,51041,ON THE NORTH SIDE OF MIDLOTHIAN TPKE BETWEEN N PROVIDENCE RD AND BUFORD RD, , , ,2009/02/05 00:00:00+00,PHONE,2009/02/05 00:00:00+00,MANUAL,"CRITICAL INFRASTRUCTURE, PDD-63; PUBLIC HEALTH; PRIMARY CARE FACILITIES (INCLUDING HOSPITALS); AMBULATORY SURGICAL FACILITIES",621493,"URGENT MEDICAL CARE CENTERS AND CLINICS (EXCEPT HOSPITALS), FREESTANDING",34735508,-77.5463966,37.4977718,NAVTEQ,2008Q1,ONENTITY,YES,TGS,UC_3790
4293,10194309,PRIMARY CARE ASSOCIATES - LEE HI MEDICAL CENTER,540-776-5656,2155 APPERSON DRIVE, ,SALEM,VA,24153,7235,SALEM CITY,51775,ON THE NORTH SIDE OF APPERSON DR BETWEEN GALE LN AND CORPORATE CIR SW, , , ,2009/02/06 00:00:00+00,PHONE,2009/02/06 00:00:00+00,MANUAL,"CRITICAL INFRASTRUCTURE, PDD-63; PUBLIC HEALTH; PRIMARY CARE FACILITIES (INCLUDING HOSPITALS); AMBULATORY SURGICAL FACILITIES",621493,"URGENT MEDICAL CARE CENTERS AND CLINICS (EXCEPT HOSPITALS), FREESTANDING",90851563,-80.0203792,37.2653544,NAVTEQ,2008Q1,ONENTITY,YES,TGS,UC_3726
4294,11521795,CARILION CLINIC URGENT CARE - WESTLAKE,540-719-1815,13205 BOOKER T WASHINGTON HIGHWAY, ,HARDY,VA,24101,3947,FRANKLIN,51067,LOCATED ON THE NORTH SIDE OF BOOKER T WASHINGTON HWY BETWEEN SCRUGGS RD AND ENTERPRISE LN, , , ,2009/03/30 00:00:00+00,PHONE,2009/03/30 00:00:00+00,MANUAL,"CRITICAL INFRASTRUCTURE, PDD-63; PUBLIC HEALTH; PRIMARY CARE FACILITIES (INCLUDING HOSPITALS); AMBULATORY SURGICAL FACILITIES",621493,"URGENT MEDICAL CARE CENTERS AND CLINICS (EXCEPT HOSPITALS), FREESTANDING",108649590,-79.7139636,37.1202583,NAVTEQ,2008Q1,ONENTITY,YES,TGS, 
4302,10422260,MEDIC-1 WALK IN CLINIC,540-371-1664,3429 JEFFERSON DAVIS HIGHWAY, ,FREDERICKSBURG,VA,22408,4170,SPOTSYLVANIA,51177,ON THE WEST SIDE OF JEFFERSON DAVIS HWY APRROX .1 MILES NORTH OF HUDGINS RD, , , ,2009/02/06 00:00:00+00,PHONE,2009/02/06 00:00:00+00,MANUAL,"CRITICAL INFRASTRUCTURE, PDD-63; PUBLIC HEALTH; PRIMARY CARE FACILITIES (INCLUDING HOSPITALS); AMBULATORY SURGICAL FACILITIES",621493,"URGENT MEDICAL CARE CENTERS AND CLINICS (EXCEPT HOSPITALS), FREESTANDING",113329662,-77.4928938,38.2731273,NAVTEQ,2008Q1,ONENTITY,YES,TGS,UC_3742
4303,10422255,EMERGENCY USA AND FAMILY,703-883-0900,1608 SPRING HILL ROAD,TYSONS CORNER,VIENNA,VA,22182,2241,FAIRFAX,51059,BETWEEN .30 AND .40 MILES SOUTHWEST OF LEESBURG PIKE ON THE NORTHWEST SIDE OF SPRING HILL RD, , , ,2009/02/05 00:00:00+00,PHONE,2009/02/05 00:00:00+00,MANUAL,"CRITICAL INFRASTRUCTURE, PDD-63; PUBLIC HEALTH; PRIMARY CARE FACILITIES (INCLUDING HOSPITALS); AMBULATORY SURGICAL FACILITIES",621493,"URGENT MEDICAL CARE CENTERS AND CLINICS (EXCEPT HOSPITALS), FREESTANDING",18449125,-77.2466716,38.9265001,NAVTEQ,2008Q1,ONENTITY,YES,TGS,UC_3716
4305,10422278,SARATOGA MEDICAL CLINIC,703-569-6998,7839 ROLLING ROAD,SUITE A,SPRINGFIELD,VA,22153,2821,FAIRFAX,51059,LESS THAN .10 MILES NORTH OF FULLERTON RD ON THE EAST SIDE OF ROLLING RD, , , ,2009/02/09 00:00:00+00,PHONE,2009/02/09 00:00:00+00,MANUAL,"CRITICAL INFRASTRUCTURE, PDD-63; PUBLIC HEALTH; PRIMARY CARE FACILITIES (INCLUDING HOSPITALS); AMBULATORY SURGICAL FACILITIES",621493,"URGENT MEDICAL CARE CENTERS AND CLINICS (EXCEPT HOSPITALS), FREESTANDING",18891937,-77.2113555,38.7437574,NAVTEQ,2008Q1,ONENTITY,YES,TGS,UC_3787
4308,10192806,NOVA URGENT CARE - ASHBURN,703-554-1111,21785 FILIGREE COURT, ,ASHBURN,VA,20147,6213,LOUDOUN,51107,.15 OF A MILE SOUTH OF THE INTERSECTION OF FILIGREE COURT AND BEAUMEADE CIRCLE. ON THE SOUTH SIDE OF FILIGREE COURT., , , ,2006/12/18 00:00:00+00,PHONE,2006/12/18 00:00:00+00,MANUAL,"CRITICAL INFRASTRUCTURE, PDD-63; PUBLIC HEALTH; PRIMARY CARE FACILITIES (INCLUDING HOSPITALS); AMBULATORY SURGICAL FACILITIES",621493,"URGENT MEDICAL CARE CENTERS AND CLINICS (EXCEPT HOSPITALS), FREESTANDING",18467981,-77.4577386,39.0124915,NAVTEQ,2006Q3,ONENTITY,YES,TGS, 
4316,10844587,ADVANCED URGENT MEDICAL CARE,703-329-1037,6020 RICHMOND HIGHWAY,SUITE 100,ALEXANDRIA,VA,22303,2157,FAIRFAX,51059,LESS THAN .10 MILES SOUTHWEST OF MT EAGLE DR ON THE NORTHWEST SIDE OF RICHMOND HWY, , , ,2009/02/05 00:00:00+00,PHONE,2009/02/05 00:00:00+00,MANUAL,"CRITICAL INFRASTRUCTURE, PDD-63; PUBLIC HEALTH; PRIMARY CARE FACILITIES (INCLUDING HOSPITALS); AMBULATORY SURGICAL FACILITIES",621493,"URGENT MEDICAL CARE CENTERS AND CLINICS (EXCEPT HOSPITALS), FREESTANDING",18367063,-77.0693816,38.7866832,NAVTEQ,2008Q1,ONENTITY,YES,TGS, 
4318,10194293,COMPREHENSIVE URGENT MEDICAL CARE,703-707-3707,1110 ELDEN STREET,SUITE 102A,HERNDON,VA,20170,5527,FAIRFAX,51059,ON THE SOUTHWEST CORNER OF ALABAMA DR AND ELDEN ST, , , ,2009/02/05 00:00:00+00,PHONE,2009/02/05 00:00:00+00,MANUAL,"CRITICAL INFRASTRUCTURE, PDD-63; PUBLIC HEALTH; PRIMARY CARE FACILITIES (INCLUDING HOSPITALS); AMBULATORY SURGICAL FACILITIES",621493,"URGENT MEDICAL CARE CENTERS AND CLINICS (EXCEPT HOSPITALS), FREESTANDING",18560098,-77.3987688,38.9649994,NAVTEQ,2008Q1,ONENTITY,YES,TGS,UC_3685
4321,10422285,SPOTSYLVANIA EMERGI-CENTER,540-786-7637,992 BRAGG ROAD, ,FREDERICKSBURG,VA,22407,6979,SPOTSYLVANIA,51177,ON THE NORTHWEST CORNER OF AMOS LN AND BRAGG RD, , , ,2009/02/06 00:00:00+00,PHONE,2009/02/06 00:00:00+00,MANUAL,"CRITICAL INFRASTRUCTURE, PDD-63; PUBLIC HEALTH; PRIMARY CARE FACILITIES (INCLUDING HOSPITALS); AMBULATORY SURGICAL FACILITIES",621493,"URGENT MEDICAL CARE CENTERS AND CLINICS (EXCEPT HOSPITALS), FREESTANDING",101897671,-77.5183275,38.2924596,NAVTEQ,2008Q1,ONENTITY,YES,TGS,UC_3803
4326,11241561,VIRGINIA ADVANCED MEDICAL CENTER URGENT CARE CLINIC,703-817-7770,5900 CENTREVILLE ROAD,SUITE 202,CENTREVILLE,VA,20121,2425,FAIRFAX,51059,.10 MILES NORTHEAST OF UPPERRIDGE DR. ON THE WEST SIDE OF FORT DR., , , ,2009/02/06 00:00:00+00,PHONE,2009/02/06 00:00:00+00,MANUAL,"CRITICAL INFRASTRUCTURE, PDD-63; PUBLIC HEALTH; PRIMARY CARE FACILITIES (INCLUDING HOSPITALS); AMBULATORY SURGICAL FACILITIES",621493,"URGENT MEDICAL CARE CENTERS AND CLINICS (EXCEPT HOSPITALS), FREESTANDING",108633281,-77.433308,38.8354034,NAVTEQ,2008Q1,ONENTITY,YES,TGS, 
4361,10194330,SENTARA OBICI URGENT CARE CENTER,757-365-8057,919 SOUTH CHURCH STREET, ,SMITHFIELD,VA,23430,1715,ISLE OF WIGHT,51093,"LOCATED ON THE EAST SIDE OF S CHURCH ST, .3 MILES NORTH OF THE INTERSECTION OF BATTERY PARK RD AND S CHURCH ST.", , , ,2009/02/05 00:00:00+00,PHONE,2009/02/05 00:00:00+00,MANUAL,"CRITICAL INFRASTRUCTURE, PDD-63; PUBLIC HEALTH; PRIMARY CARE FACILITIES (INCLUDING HOSPITALS); AMBULATORY SURGICAL FACILITIES",621493,"URGENT MEDICAL CARE CENTERS AND CLINICS (EXCEPT HOSPITALS), FREESTANDING",128087128,-76.6108551,36.9768825,NAVTEQ,2008Q1,ONENTITY,YES,TGS,UC_3797
4421,11522801,FAUQUIER URGENT CARE,540-347-4757,75 WEST LEE HIGHWAY, ,WARRENTON,VA,20186,2149,FAUQUIER,51061,LOCATED ON THE NORTH SIDE OF W LEE HWY BETWEEN FLETCHER DR AND BLACKWELL RD, , , ,2009/03/30 00:00:00+00,PHONE,2009/03/30 00:00:00+00,MANUAL,"CRITICAL INFRASTRUCTURE, PDD-63; PUBLIC HEALTH; PRIMARY CARE FACILITIES (INCLUDING HOSPITALS); AMBULATORY SURGICAL FACILITIES",621493,"URGENT MEDICAL CARE CENTERS AND CLINICS (EXCEPT HOSPITALS), FREESTANDING",40046877,-77.7931306,38.729003,NAVTEQ,2008Q1,ONENTITY,YES,TGS, 
4429,10194297,PATIENT FIRST - CEDAR ROAD,757-549-9935,1239 CEDAR ROAD, ,CHESAPEAKE,VA,23322,7103,CHESAPEAKE CITY,51550,"ON THE SOUTHWEST SIDE OF CEDAR ROAD, .1 NW OF ROUNTREE ROAD", , , ,2009/02/05 00:00:00+00,PHONE,2009/02/05 00:00:00+00,MANUAL,"CRITICAL INFRASTRUCTURE, PDD-63; PUBLIC HEALTH; PRIMARY CARE FACILITIES (INCLUDING HOSPITALS); AMBULATORY SURGICAL FACILITIES",621493,"URGENT MEDICAL CARE CENTERS AND CLINICS (EXCEPT HOSPITALS), FREESTANDING",24750355,-76.2846966,36.7168847,NAVTEQ,2008Q1,ONENTITY,YES,TGS,UC_3694
4449,11241563,OLD DOMINION URGENT CARE CENTER,703-893-2505,6262 OLD DOMINION DRIVE, ,MCLEAN,VA,22101,4217,FAIRFAX,51059,LESS THAN .10 MILES SOUTHEAST OF KIRBY RD ON THE NORTHEAST SIDE OF OLD DOMINION DR, , , ,2009/02/06 00:00:00+00,PHONE,2009/02/06 00:00:00+00,MANUAL,"CRITICAL INFRASTRUCTURE, PDD-63; PUBLIC HEALTH; PRIMARY CARE FACILITIES (INCLUDING HOSPITALS); AMBULATORY SURGICAL FACILITIES",621493,"URGENT MEDICAL CARE CENTERS AND CLINICS (EXCEPT HOSPITALS), FREESTANDING",18895619,-77.1523609,38.9212449,NAVTEQ,2008Q1,ONENTITY,YES,TGS, 
4500,11241592,PRIME CARE URGENT AND FAMILY CARE,540-786-1200,9763 COURTHOUSE ROAD, ,SPOTSYLVANIA,VA,22553,1915,SPOTSYLVANIA,51177,ON THE SOUTHWEST CORNER OF COURTHOUSE RD AND SMITH STATION RD, , , ,2009/02/06 00:00:00+00,PHONE,2009/02/06 00:00:00+00,MANUAL,"CRITICAL INFRASTRUCTURE, PDD-63; PUBLIC HEALTH; PRIMARY CARE FACILITIES (INCLUDING HOSPITALS); AMBULATORY SURGICAL FACILITIES",621493,"URGENT MEDICAL CARE CENTERS AND CLINICS (EXCEPT HOSPITALS), FREESTANDING",101898987,-77.5596584,38.2322034,NAVTEQ,2008Q1,ONENTITY,NO,TGS, 
4517,10421216,PATIENT FIRST - MIDLOTHIAN,804-744-6310,11020 HULL STREET ROAD, ,MIDLOTHIAN,VA,23112,3200,CHESTERFIELD,51041,.10 MILES SOUTHWEST OF WOODSONG DR ON THE NORTHWEST SIDE OF HULL ST RD, , , ,2009/02/05 00:00:00+00,PHONE,2009/02/05 00:00:00+00,MANUAL,"CRITICAL INFRASTRUCTURE, PDD-63; PUBLIC HEALTH; PRIMARY CARE FACILITIES (INCLUDING HOSPITALS); AMBULATORY SURGICAL FACILITIES",621493,"URGENT MEDICAL CARE CENTERS AND CLINICS (EXCEPT HOSPITALS), FREESTANDING",34738277,-77.5986959,37.4383184,NAVTEQ,2008Q1,ONENTITY,YES,TGS,UC_3684
4524,11513104,HOADLY MEDICAL CARE,703-590-5999,6356 HOADLY ROAD, ,MANASSAS,VA,20112,3422,PRINCE WILLIAM,51153,LOCATED ON THE NORTHEAST CORNER OF PURCELL RD AND HOADLY RD., , , ,2009/02/10 00:00:00+00,PHONE,2009/02/10 00:00:00+00,MANUAL,"CRITICAL INFRASTRUCTURE, PDD-63; PUBLIC HEALTH; PRIMARY CARE FACILITIES (INCLUDING HOSPITALS); AMBULATORY SURGICAL FACILITIES",621493,"URGENT MEDICAL CARE CENTERS AND CLINICS (EXCEPT HOSPITALS), FREESTANDING",128085815,-77.3959901,38.6731884,NAVTEQ,2008Q1,ONENTITY,YES,TGS, 
4525,10844589,APPALACHIAN AFTER HOURS CARE,276-679-0800,1014 PARK AVENUE NORTHWEST, ,NORTON,VA,24273,1823,NORTON CITY,51720,LOCATED ON THE NORTH SIDE OF PARK AVE NW BETWEEN 10TH ST NW AND 11 ST NW., , , ,2009/02/10 00:00:00+00,PHONE,2009/02/10 00:00:00+00,MANUAL,"CRITICAL INFRASTRUCTURE, PDD-63; PUBLIC HEALTH; PRIMARY CARE FACILITIES (INCLUDING HOSPITALS); AMBULATORY SURGICAL FACILITIES",621493,"URGENT MEDICAL CARE CENTERS AND CLINICS (EXCEPT HOSPITALS), FREESTANDING",101674813,-82.6339755,36.9324339,NAVTEQ,2008Q1,ONENTITY,YES,TGS, 
4526,10421180,FIRST MED OF WILLIAMSBURG,757-229-4141,312 2ND STREET, ,WILLIAMSBURG,VA,23185,4528,WILLIAMSBURG CITY,51830,BETWEEN .1 AND .2 MILE EAST OF PARKWAY DRIVE ON NORTH SIDE OF 2ND STREET, , , ,2009/02/10 00:00:00+00,PHONE,2009/02/10 00:00:00+00,MANUAL,"CRITICAL INFRASTRUCTURE, PDD-63; PUBLIC HEALTH; PRIMARY CARE FACILITIES (INCLUDING HOSPITALS); AMBULATORY SURGICAL FACILITIES",621493,"URGENT MEDICAL CARE CENTERS AND CLINICS (EXCEPT HOSPITALS), FREESTANDING",25194391,-76.6832645,37.2741361,NAVTEQ,2008Q1,ONENTITY,YES,TGS,UC_3738
4535,11513120,ADVANCE WALK IN URGENT CARE,703-257-2070,10535 CRESTWOOD DRIVE,SUITE 101,MANASSAS,VA,20109,4417,PRINCE WILLIAM,51153,"LOCATED ON THE SOUTH SIDE OF CRESTWOOD DR, .1 MILES SOUTHWEST OF SUDLEY RD.", , , ,2009/02/11 00:00:00+00,PHONE,2009/02/11 00:00:00+00,MANUAL,"CRITICAL INFRASTRUCTURE, PDD-63; PUBLIC HEALTH; PRIMARY CARE FACILITIES (INCLUDING HOSPITALS); AMBULATORY SURGICAL FACILITIES",621493,"URGENT MEDICAL CARE CENTERS AND CLINICS (EXCEPT HOSPITALS), FREESTANDING",24790737,-77.511515,38.7788661,NAVTEQ,2008Q1,ONENTITY,YES,TGS, 
4536,11513073,MEDICAL CENTER OF STAFFORD,540-659-4157,608 GARRISONVILLE ROAD, ,STAFFORD,VA,22554,3706,STAFFORD,51179,ON THE NORTH SIDE OF GARRISONVILLE RD BETWEEN KINGSLAND DR AND BERKSHIRE DR, , , ,2009/02/10 00:00:00+00,PHONE,2009/02/10 00:00:00+00,MANUAL,"CRITICAL INFRASTRUCTURE, PDD-63; PUBLIC HEALTH; PRIMARY CARE FACILITIES (INCLUDING HOSPITALS); AMBULATORY SURGICAL FACILITIES",621493,"URGENT MEDICAL CARE CENTERS AND CLINICS (EXCEPT HOSPITALS), FREESTANDING",33752531,-77.4409561,38.4738484,NAVTEQ,2008Q1,ONENTITY,YES,TGS, 
4546,10421236,LAKEVIEW MEDICAL CENTER - SUFFOLK,757-539-0251,2000 MEADE PARKWAY, ,SUFFOLK,VA,23434,4259,SUFFOLK CITY,51800,ON THE SOUTHERN MOST END OF MEADE PKY ABOUT .2 MILES SOUTH OF THE INTERSECTION OF MEADE PKY AND PRUDEN BLVD., , , ,2009/01/13 00:00:00+00,PHONE,2009/01/13 00:00:00+00,MANUAL,"CRITICAL INFRASTRUCTURE, PDD-63; PUBLIC HEALTH; PRIMARY CARE FACILITIES (INCLUDING HOSPITALS); AMBULATORY SURGICAL FACILITIES",621493,"URGENT MEDICAL CARE CENTERS AND CLINICS (EXCEPT HOSPITALS), FREESTANDING",25200428,-76.5948564,36.7605057,NAVTEQ,2008Q1,ONENTITY,YES,TGS,UC_3720
4572,10194323,VALLEY HEALTH URGENT CARE,540-536-2232,607 EAST JUBAL EARLY DRIVE, ,WINCHESTER,VA,22601,5178,WINCHESTER CITY,51840,LESS THAN .1 MILE EAST OF SOUTH PLEASANT VALLEY ROAD ON THE SOUTH SIDE OF EAST JUBAL EARLY DRIVE, , , ,2009/02/10 00:00:00+00,PHONE,2009/02/10 00:00:00+00,MANUAL,"CRITICAL INFRASTRUCTURE, PDD-63; PUBLIC HEALTH; PRIMARY CARE FACILITIES (INCLUDING HOSPITALS); AMBULATORY SURGICAL FACILITIES",621493,"URGENT MEDICAL CARE CENTERS AND CLINICS (EXCEPT HOSPITALS), FREESTANDING",24727592,-78.1645331,39.1638181,NAVTEQ,2008Q1,ONENTITY,YES,TGS,UC_3771
4575,10422268,I AND O MEDICAL CENTER,757-825-1100,593 ABERDEEN ROAD, ,HAMPTON,VA,23661,1332,HAMPTON CITY,51650,LOC ON THE W SIDE OF ABERDEEN RD LESS THAN .1 MI S OF 58TH ST, , , ,2009/02/06 00:00:00+00,PHONE,2009/02/06 00:00:00+00,MANUAL,"CRITICAL INFRASTRUCTURE, PDD-63; PUBLIC HEALTH; PRIMARY CARE FACILITIES (INCLUDING HOSPITALS); AMBULATORY SURGICAL FACILITIES",621493,"URGENT MEDICAL CARE CENTERS AND CLINICS (EXCEPT HOSPITALS), FREESTANDING",25219692,-76.4033502,37.0112182,NAVTEQ,2008Q1,ONENTITY,YES,TGS,UC_3764
4576,10194316,PATIENT FIRST - SHORT PUMP,804-360-8061,3370 PUMP ROAD, ,RICHMOND,VA,23233,1130,HENRICO,51087,ON THE NW SIDE OF PUMP RD LESS THEN .1 MI SW OF NE OLD THREE CHOPT RD, , , ,2009/02/05 00:00:00+00,PHONE,2009/02/05 00:00:00+00,MANUAL,"CRITICAL INFRASTRUCTURE, PDD-63; PUBLIC HEALTH; PRIMARY CARE FACILITIES (INCLUDING HOSPITALS); AMBULATORY SURGICAL FACILITIES",621493,"URGENT MEDICAL CARE CENTERS AND CLINICS (EXCEPT HOSPITALS), FREESTANDING",18917888,-77.6136201,37.6496992,NAVTEQ,2008Q1,ONENTITY,YES,TGS,UC_3741
4622,10844145,LAKEVIEW MEDICAL CENTER - CHURCHLAND,757-483-7900,4868 BRIDGE ROAD, ,SUFFOLK,VA,23435,2048,SUFFOLK CITY,51800,ON THE NE CORNER OF COLLEGE DRIVE AND BRIDGE RD., , , ,2009/01/13 00:00:00+00,PHONE,2009/01/13 00:00:00+00,MANUAL,"CRITICAL INFRASTRUCTURE, PDD-63; PUBLIC HEALTH; PRIMARY CARE FACILITIES (INCLUDING HOSPITALS); AMBULATORY SURGICAL FACILITIES",621493,"URGENT MEDICAL CARE CENTERS AND CLINICS (EXCEPT HOSPITALS), FREESTANDING",25223436,-76.421134,36.8661447,NAVTEQ,2008Q1,ONENTITY,YES,TGS, 
4623,10422270,PATIENT FIRST - INDIAN RIVER,757-424-2490,5486 INDIAN RIVER ROAD, ,VIRGINIA BEACH,VA,23464,5365,VIRGINIA BEACH CITY,51810,ON THE NE CORNER OF THOMPKINS LN AND INDIAN RIVER RD., , , ,2009/01/13 00:00:00+00,PHONE,2009/01/13 00:00:00+00,MANUAL,"CRITICAL INFRASTRUCTURE, PDD-63; PUBLIC HEALTH; PRIMARY CARE FACILITIES (INCLUDING HOSPITALS); AMBULATORY SURGICAL FACILITIES",621493,"URGENT MEDICAL CARE CENTERS AND CLINICS (EXCEPT HOSPITALS), FREESTANDING",25175260,-76.1810492,36.8011645,NAVTEQ,2008Q1,ONENTITY,YES,TGS,UC_3766
4624,10422259,LITTLE NECK MEDICAL ASSOCIATES,757-340-4901,2859 VIRGINIA BEACH BOULEVARD, ,VIRGINIA BEACH,VA,23452,7613,VIRGINIA BEACH CITY,51810,ON THE SE CORNER OF YORKTOWN AVE AND VIRGINIA BEACH BLVD., , , ,2009/01/13 00:00:00+00,PHONE,2009/01/13 00:00:00+00,MANUAL,"CRITICAL INFRASTRUCTURE, PDD-63; PUBLIC HEALTH; PRIMARY CARE FACILITIES (INCLUDING HOSPITALS); AMBULATORY SURGICAL FACILITIES",621493,"URGENT MEDICAL CARE CENTERS AND CLINICS (EXCEPT HOSPITALS), FREESTANDING",19448699,-76.069225,36.8430925,NAVTEQ,2008Q1,ONENTITY,YES,TGS,UC_3736
4652,10422247,PATIENT FIRST - CARYTOWN,804-359-1337,12 NORTH THOMPSON STREET, ,RICHMOND,VA,23221,2718,RICHMOND CITY,51760,LOCATED ON THE SOUTHWEST CORNER OF N THOMPSON ST OF FLOYD AVE., , , ,2009/02/06 00:00:00+00,PHONE,2009/02/06 00:00:00+00,MANUAL,"CRITICAL INFRASTRUCTURE, PDD-63; PUBLIC HEALTH; PRIMARY CARE FACILITIES (INCLUDING HOSPITALS); AMBULATORY SURGICAL FACILITIES",621493,"URGENT MEDICAL CARE CENTERS AND CLINICS (EXCEPT HOSPITALS), FREESTANDING",18923809,-77.4884955,37.5580849,NAVTEQ,2008Q1,ONENTITY,YES,TGS,UC_3690
4657,10844132,CONCENTRA URGENT CARE - RICHMOND SOUTH,804-275-7200,9211 BURGE AVENUE, ,RICHMOND,VA,23237,3038,CHESTERFIELD,51041,LESS THAN .10 MILES SOUTH OF WILLIS RD ON THE EAST SIDE OF BURGE AVE, , , ,2009/02/09 00:00:00+00,PHONE,2009/02/09 00:00:00+00,MANUAL,"CRITICAL INFRASTRUCTURE, PDD-63; PUBLIC HEALTH; PRIMARY CARE FACILITIES (INCLUDING HOSPITALS); AMBULATORY SURGICAL FACILITIES",621493,"URGENT MEDICAL CARE CENTERS AND CLINICS (EXCEPT HOSPITALS), FREESTANDING",34739815,-77.4221671,37.400157,NAVTEQ,2008Q1,ONENTITY,YES,TGS, 
4664,10194319,URGENT CARE VIRGINIA,703-916-1211,4810 BEAUREGARD STREET,SUITE 206 B,ALEXANDRIA,VA,22312,1709,FAIRFAX,51059,ON THE NORTHWEST CORNER OF THE INTERSECTION OF BEAUREGARD ST AND LITTLE RIVER TPKE, , , ,2008/03/14 00:00:00+00,PHONE,2008/03/14 00:00:00+00,MANUAL,"CRITICAL INFRASTRUCTURE, PDD-63; PUBLIC HEALTH; PRIMARY CARE FACILITIES (INCLUDING HOSPITALS); AMBULATORY SURGICAL FACILITIES",621493,"URGENT MEDICAL CARE CENTERS AND CLINICS (EXCEPT HOSPITALS), FREESTANDING",18363297,-77.1435804,38.8189902,NAVTEQ,2008Q1,BLOCKFACE,YES,TGS,UC_3755
4672,11241554,PIEDMONT PRIMECARE EAST,434-791-2612,404 AIRPORT DRIVE,SUITE A,DANVILLE,VA,24540,5196,DANVILLE CITY,51590,ON THE NORTHWEST CORNER OF AIRPORT DR AND GILBERT CT, , , ,2009/02/06 00:00:00+00,PHONE,2009/02/06 00:00:00+00,MANUAL,"CRITICAL INFRASTRUCTURE, PDD-63; PUBLIC HEALTH; PRIMARY CARE FACILITIES (INCLUDING HOSPITALS); AMBULATORY SURGICAL FACILITIES",621493,"URGENT MEDICAL CARE CENTERS AND CLINICS (EXCEPT HOSPITALS), FREESTANDING",123411791,-79.3425272,36.5797297,NAVTEQ,2008Q1,ONENTITY,YES,TGS, 
4674,10844590,ARLINGTON URGENT CARE,703-717-7000,601 SOUTH CARLIN SPRINGS ROAD, ,ARLINGTON,VA,22204,1023,ARLINGTON,51013,ON THE NE SIDE OF S CARLIN SPRINGS RD LESS THEN .1 MI SE OF 6TH RD, , , ,2009/02/04 00:00:00+00,PHONE,2009/02/04 00:00:00+00,MANUAL,"CRITICAL INFRASTRUCTURE, PDD-63; PUBLIC HEALTH; PRIMARY CARE FACILITIES (INCLUDING HOSPITALS); AMBULATORY SURGICAL FACILITIES",621493,"URGENT MEDICAL CARE CENTERS AND CLINICS (EXCEPT HOSPITALS), FREESTANDING",18357627,-77.126058,38.8604727,NAVTEQ,2008Q1,ONENTITY,YES,TGS, 
4675,10844597,KIDMED,804-422-5437,4687 POUNCEY TRACT ROAD, ,GLEN ALLEN,VA,23059,5802,HENRICO,51087,LOCATED ON THE E SIDE OF POUNCEY TRACT RD BETWEEN .2 AND .1 MILES S OF KAIN RD., , , ,2009/02/05 00:00:00+00,PHONE,2009/02/05 00:00:00+00,MANUAL,"CRITICAL INFRASTRUCTURE, PDD-63; PUBLIC HEALTH; PRIMARY CARE FACILITIES (INCLUDING HOSPITALS); AMBULATORY SURGICAL FACILITIES",621493,"URGENT MEDICAL CARE CENTERS AND CLINICS (EXCEPT HOSPITALS), FREESTANDING",18917127,-77.613104,37.6647668,NAVTEQ,2008Q1,BLOCKFACE,YES,TGS, 
4682,10422257,PATIENT FIRST - PARHAM ROAD,804-270-2150,2205 NORTH PARHAM ROAD, ,RICHMOND,VA,23229,3161,HENRICO,51087,ON THE SE SIDE OF N PARTNAD RD LESS THEN .1 MI SW OF FORDSON RD, , , ,2009/02/05 00:00:00+00,PHONE,2009/02/05 00:00:00+00,MANUAL,"CRITICAL INFRASTRUCTURE, PDD-63; PUBLIC HEALTH; PRIMARY CARE FACILITIES (INCLUDING HOSPITALS); AMBULATORY SURGICAL FACILITIES",621493,"URGENT MEDICAL CARE CENTERS AND CLINICS (EXCEPT HOSPITALS), FREESTANDING",18910899,-77.5577708,37.6200923,NAVTEQ,2008Q1,ONENTITY,YES,TGS,UC_3727
4683,11241570,RIVERSIDE STAT MD,804-684-5565,2246 GEORGE WASHINGTON MEMORIAL HIGHWAY, ,HAYES,VA,23072,3559,GLOUCESTER,51073,LOC ON THE W SIDE OF US-17 .3 MI S OF VA-216, , , ,2009/02/06 00:00:00+00,PHONE,2009/02/06 00:00:00+00,MANUAL,"CRITICAL INFRASTRUCTURE, PDD-63; PUBLIC HEALTH; PRIMARY CARE FACILITIES (INCLUDING HOSPITALS); AMBULATORY SURGICAL FACILITIES",621493,"URGENT MEDICAL CARE CENTERS AND CLINICS (EXCEPT HOSPITALS), FREESTANDING",716652196,-76.4982502,37.2727982,NAVTEQ,2008Q1,ONENTITY,YES,TGS, 
4685,10194324,EXPRESS MED,804-346-4545,5310 TWIN HICKORY ROAD, ,GLEN ALLEN,VA,23059,5682,HENRICO,51087,ON THE NE SIDE OF NUCKOLS RD BETWEEN .1 AND .2 MI NW OF OPACA LN, , , ,2009/02/09 00:00:00+00,PHONE,2009/02/09 00:00:00+00,MANUAL,"CRITICAL INFRASTRUCTURE, PDD-63; PUBLIC HEALTH; PRIMARY CARE FACILITIES (INCLUDING HOSPITALS); AMBULATORY SURGICAL FACILITIES",621493,"URGENT MEDICAL CARE CENTERS AND CLINICS (EXCEPT HOSPITALS), FREESTANDING",724732028,-77.5849161,37.6806445,NAVTEQ,2008Q1,ONENTITY,YES,TGS,UC_3772
4697,10844134,CONCENTRA URGENT CARE - STERLING,703-435-7656,45305 CATALINA COURT,SUITE 103,STERLING,VA,20166,2337,LOUDOUN,51107,LOCATED ON THE SOUTH EAST SIDE OF THE INTERSECTION OF CATALINA CT AND PACIFIC BLVD., , , ,2009/02/05 00:00:00+00,PHONE,2009/02/10 00:00:00+00,MANUAL,"CRITICAL INFRASTRUCTURE, PDD-63; PUBLIC HEALTH; PRIMARY CARE FACILITIES (INCLUDING HOSPITALS); AMBULATORY SURGICAL FACILITIES",621493,"URGENT MEDICAL CARE CENTERS AND CLINICS (EXCEPT HOSPITALS), FREESTANDING",24736111,-77.4334631,38.9775288,NAVTEQ,2008Q1,ONENTITY,YES,TGS, 
4699,10422265,DALE WOOD CLINIC,703-680-5068,4158 DALE BOULEVARD, ,WOODBRIDGE,VA,22193,2225,PRINCE WILLIAM,51153,"LOCATED ON THE NORTHEAST SIDE OF DALE BLVD, .2 MILES SOUTHEAST OF MINNIEVILLE RD.", , , ,2009/02/06 00:00:00+00,PHONE,2009/02/06 00:00:00+00,MANUAL,"CRITICAL INFRASTRUCTURE, PDD-63; PUBLIC HEALTH; PRIMARY CARE FACILITIES (INCLUDING HOSPITALS); AMBULATORY SURGICAL FACILITIES",621493,"URGENT MEDICAL CARE CENTERS AND CLINICS (EXCEPT HOSPITALS), FREESTANDING",736435210,-77.3348117,38.6434734,NAVTEQ,2008Q1,ONENTITY,YES,TGS,UC_3749
4700,10194318,LOUDOUN MEDICAL GROUP PRIMARY URGENT CARE CENTER,703-450-1125,44644 BENEDICT DRIVE,SUITE 107,STERLING,VA,20164, ,LOUDOUN,51107,LOCATED ON THE NORTH CORNER OF THE INTERSECTION OF BENEDICT DR AND POTOMAC VIEW RD., , , ,2009/02/05 00:00:00+00,PHONE,2009/02/05 00:00:00+00,MANUAL,"CRITICAL INFRASTRUCTURE, PDD-63; PUBLIC HEALTH; PRIMARY CARE FACILITIES (INCLUDING HOSPITALS); AMBULATORY SURGICAL FACILITIES",621493,"URGENT MEDICAL CARE CENTERS AND CLINICS (EXCEPT HOSPITALS), FREESTANDING",18467787,-77.3928726,39.0248106,NAVTEQ,2008Q1,ONENTITY,YES,TGS,UC_3753
4771,10194300,MY URGENT CARE - LAKE RIDGE,703-494-6160,12449 HEDGES RUN DRIVE, ,LAKE RIDGE,VA,22192,1715,PRINCE WILLIAM,51153,"LOCATED ON THE EAST SIDE OF HEDGES RUN RD, BETWEEN VA-641 AND COMMISSION CT.", , , ,2009/02/06 00:00:00+00,PHONE,2009/02/06 00:00:00+00,MANUAL,"CRITICAL INFRASTRUCTURE, PDD-63; PUBLIC HEALTH; PRIMARY CARE FACILITIES (INCLUDING HOSPITALS); AMBULATORY SURGICAL FACILITIES",621493,"URGENT MEDICAL CARE CENTERS AND CLINICS (EXCEPT HOSPITALS), FREESTANDING",24781043,-77.3113876,38.6861418,NAVTEQ,2008Q1,ONENTITY,YES,TGS,UC_3697
4772,10194331,PATIENT CARE PLUS,540-885-6789,42 LAMBERT STREET,SUITE 111,STAUNTON,VA,24401,2421,STAUNTON CITY,51790,ON THE SOUTH SIDE OF LAMBERT ST BETWEEN N AUGUSTA AND S LYNHAVEN DR, , , ,2009/02/10 00:00:00+00,PHONE,2009/02/10 00:00:00+00,MANUAL,"CRITICAL INFRASTRUCTURE, PDD-63; PUBLIC HEALTH; PRIMARY CARE FACILITIES (INCLUDING HOSPITALS); AMBULATORY SURGICAL FACILITIES",621493,"URGENT MEDICAL CARE CENTERS AND CLINICS (EXCEPT HOSPITALS), FREESTANDING",123620031,-79.0668102,38.1638254,NAVTEQ,2008Q1,ONENTITY,YES,TGS,UC_3798